{"type":"FeatureCollection", "features": [
{"type":"Feature","geometry":{"type":"Polygon","coordinates":[[[1.485537886619568,42.62621307373047],[1.80907130241394,42.56119155883789],[1.725796341896057,42.62621307373047],[1.485537886619568,42.62621307373047]]]},"properties":{"Name":"County of Urgell","FromYear":1344,"ToYear":1515,"Area":332.50452742783244,"Type":"POLITY","Wikipedia":"County of Urgell","Wikidata":"Q1514510","SeshatID":"","Components":"","MemberOf":""}},
{"type":"Feature","geometry":{"type":"Polygon","coordinates":[[[4.453888416290283,34.614952087402344],[4.562509536743164,36.3527946472168],[4.638402462005615,36.417205810546875],[4.390811920166016,36.932613372802734],[1.216211557388306,36.5460319519043],[0.083524890244007,35.837650299072266],[-2.121232748031616,35.065311431884766],[-1.578816890716553,33.45735549926758],[-0.467391967773438,34.3576545715332],[2.449900150299072,34.614952087402344],[2.920501947402954,34.3576545715332],[4.453888416290283,34.614952087402344]]]},"properties":{"Name":"Zayyanid dynasty","FromYear":1363,"ToYear":1506,"Area":126172.03510638671,"Type":"POLITY","Wikipedia":"Zayyanid dynasty","Wikidata":"Q307697","SeshatID":"dz_zayyanid_dyn;dz_tlemcen","Components":"","MemberOf":""}},
{"type":"Feature","geometry":{"type":"Polygon","coordinates":[[[27.861310958862305,45.300437927246094],[26.10191535949707,45.62776184082031],[23.483562469482422,45.496795654296875],[22.531999588012695,44.71194839477539],[22.951791763305664,43.79821014404297],[25.434297561645508,43.6026611328125],[26.281423568725586,44.05907440185547],[27.828874588012695,44.18956756591797],[27.861310958862305,45.300437927246094]]]},"properties":{"Name":"Principality of Wallachia","FromYear":1422,"ToYear":1528,"Area":74280.00536401017,"Type":"POLITY","Wikipedia":"Wallachia","Wikidata":"Q171393","SeshatID":"ro_wallachia_principality_2","Components":"","MemberOf":""}},
{"type":"Feature","geometry":{"type":"Polygon","coordinates":[[[27.54010581970215,58.528167724609375],[27.731943130493164,59.15507125854492],[28.026525497436523,59.294734954833984],[28.03827770943572,59.36459514969338],[28.061809539794922,59.504478454589844],[27.88040542602539,59.504478454589844],[26.45072364807129,59.64447021484375],[23.409774780273438,59.294734954833984],[24.268098831176758,58.2503662109375],[23.57867431640625,57.00625228881836],[22.51758575439453,57.8345832824707],[21.41047477722168,57.488929748535156],[20.916179656982422,56.04508590698242],[21.74201202392578,56.387733459472656],[24.82863998413086,56.387733459472656],[26.495513916015625,55.70311737060547],[27.470035552978516,55.77145767211914],[27.901763916015625,56.86860656738281],[27.72037696838379,57.97305679321289],[27.664058685302734,58.180992126464844],[27.54010581970215,58.528167724609375]]]},"properties":{"Name":"Livonian Conference","FromYear":1422,"ToYear":1511,"Area":116337.92982875183,"Type":"POLITY","Wikipedia":"Livonian language","Wikidata":"Q33698","SeshatID":"","Components":"","MemberOf":""}},
{"type":"Feature","geometry":{"type":"Polygon","coordinates":[[[17.510494232177734,42.82133865356445],[18.303630828857422,42.62621307373047],[18.306493759155273,42.691246032714844],[17.518270340175995,43.016544342041016],[17.518268585205078,43.016544342041016],[17.515670776367188,42.95146560668945],[17.510494232177734,42.82133865356445]]]},"properties":{"Name":"Republic of Ragusa","FromYear":1429,"ToYear":1771,"Area":1539.520179708215,"Type":"POLITY","Wikipedia":"Republic of Ragusa","Wikidata":"Q208169","SeshatID":"","Components":"","MemberOf":""}},
{"type":"Feature","geometry":{"type":"Polygon","coordinates":[[[4.453888416290283,34.614952087402344],[6.920335292816162,34.614952087402344],[8.773378372192383,34.22901916503906],[9.62503719329834,33.13589859008789],[11.767910957336426,32.30024337768555],[13.82862377166748,32.107421875],[15.489551544189453,30.950578689575195],[18.28125762939453,30.050809860229492],[18.8246491043041,30.050809860229492],[18.869278136051307,30.25166235864125],[17.469486236572266,31.079113006591797],[16.178552627563477,31.20764923095703],[15.206924438476562,32.36451721191406],[13.301749229431152,32.94303894042969],[12.228955268859863,32.81447219848633],[10.005777359008789,33.90746307373047],[11.082771301269531,35.00096893310547],[10.463515281677246,35.902034759521484],[11.006199836730957,36.80373764038086],[9.603086471557617,37.3193473815918],[8.516410827636719,36.8681755065918],[7.346271514892578,37.06150817871094],[5.097836971282959,36.67487716674805],[4.390811920166016,36.932613372802734],[4.638402462005615,36.417205810546875],[4.562509536743164,36.3527946472168],[4.453888416290283,34.614952087402344]]]},"properties":{"Name":"Hafsid Dynasty","FromYear":1453,"ToYear":1511,"Area":224190.0243258465,"Type":"POLITY","Wikipedia":"Hafsid dynasty","Wikidata":"Q752662","SeshatID":"","Components":"","MemberOf":""}},
{"type":"Feature","geometry":{"type":"Polygon","coordinates":[[[38.540340423583984,54.74907684326172],[39.167301177978516,53.732303619384766],[39.8572998046875,53.732303619384766],[40.43535232543945,55.70311737060547],[38.540340423583984,54.74907684326172]]]},"properties":{"Name":"Ryazan","FromYear":1453,"ToYear":1501,"Area":17025.867411538013,"Type":"POLITY","Wikipedia":"Ryazan","Wikidata":"Q269109","SeshatID":"","Components":"","MemberOf":""}},
{"type":"Feature","geometry":{"type":"Polygon","coordinates":[[[39.8572998046875,53.732303619384766],[41.77260208129883,54.138362884521484],[42.2338752746582,55.225467681884766],[41.805965423583984,55.90821838378906],[40.43535232543945,55.70311737060547],[39.8572998046875,53.732303619384766]]]},"properties":{"Name":"Qasim Khanate","FromYear":1453,"ToYear":1501,"Area":23756.8355341701,"Type":"POLITY","Wikipedia":"Qasim Khanate","Wikidata":"Q836169","SeshatID":"","Components":"","MemberOf":""}},
{"type":"Feature","geometry":{"type":"MultiPolygon","coordinates":[[[[9.5735502243042,42.75628662109375],[8.534564018249512,42.496177673339844],[9.1038236618042,41.32738494873047],[9.5735502243042,42.75628662109375]]],[[[9.969700813293457,44.12431716918945],[9.481462478637695,44.64661407470703],[8.429792404174805,44.5159797668457],[8.030961036682129,44.12431716918945],[7.62705659866333,44.12431716918945],[7.310199737548828,43.79821014404297],[7.39082670211792,43.79821014404297],[8.065429538939915,43.980793520906275],[8.112696640069434,44.05900936344351],[8.112735943835727,44.05907440185547],[8.152163205391814,44.12431716918945],[8.191595077514648,44.18956756591797],[8.271687035285549,44.241728319532974],[8.291803533811333,44.25482940673828],[8.3518255608292,44.29391940091357],[8.39202956231803,44.32010269165039],[8.592522621154785,44.45067596435547],[9.159077644348145,44.45067596435547],[9.63990758187848,44.1745396319326],[9.888919830322266,44.12431716918945],[9.969700813293457,44.12431716918945]]],[[[33.52981185913086,44.5159797668457],[33.48467410096275,44.58129119873047],[33.50281899102185,44.5159797668457],[33.52981185913086,44.5159797668457]]],[[[33.52096176147461,44.45067596435547],[35.39760208129883,45.10417556762695],[34.55707931518555,44.908016204833984],[34.475921630859375,44.908016204833984],[34.12426874419686,44.71216362783144],[34.12387227405638,44.71187656285562],[34.03373718261719,44.64661407470703],[33.52981185913086,44.5159797668457],[33.52096176147461,44.45067596435547]]],[[[36.778892517089844,45.10417556762695],[37.097006942742574,45.06057100298558],[37.17651599041221,45.04967254278036],[37.216339111328125,45.300437927246094],[36.93586748092214,45.3789491163904],[36.74873733520508,45.431331634521484],[36.778892517089844,45.10417556762695]]],[[[36.23013687133789,45.23500442504883],[36.3826904296875,45.169586181640625],[36.2602653503418,45.431331634521484],[36.23013687133789,45.23500442504883]]],[[[39.385501861572266,47.46647262573242],[39.30305862426758,47.46647262573242],[39.214670714251604,47.43354035500728],[39.149861151642114,47.37866029409693],[39.2203369140625,47.005828857421875],[39.385501861572266,47.46647262573242]]]]},"properties":{"Name":"Republic of Genoa","FromYear":1453,"ToYear":1525,"Area":26048.744148078295,"Type":"POLITY","Wikipedia":"Republic of Genoa","Wikidata":"Q174306","SeshatID":"it_genoa_rep_2","Components":"","MemberOf":""}},
{"type":"Feature","geometry":{"type":"MultiPolygon","coordinates":[[[[7.015303134918213,49.58156967163086],[7.10215425491333,49.44889450073242],[8.029407501220703,48.98506164550781],[8.112674713134766,48.98506164550781],[8.267212867736816,49.71431350708008],[7.015303134918213,49.58156967163086]]],[[[11.277556419372559,49.18375015258789],[12.524224281311035,48.852684020996094],[13.02955150604248,49.2500114440918],[12.12159538269043,50.17946243286133],[11.277556419372559,49.18375015258789]]]]},"properties":{"Name":"Electorate of Trier","FromYear":1459,"ToYear":1555,"Area":17043.146627744925,"Type":"POLITY","Wikipedia":"Electorate of Trier","Wikidata":"Q1794352","SeshatID":"","Components":"","MemberOf":""}},
{"type":"Feature","geometry":{"type":"Polygon","coordinates":[[[4.799726963043213,44.12431716918945],[4.99188536214119,44.17651569530577],[5.012281908400454,44.21131287729043],[4.973548851088087,44.241773018617515],[4.8542766863815885,44.21753186502837],[4.799726963043213,44.12431716918945]]]},"properties":{"Name":"Principality of Orange","FromYear":1459,"ToYear":1563,"Area":140.52605969985626,"Type":"POLITY","Wikipedia":"Principality of Orange","Wikidata":"Q2281221","SeshatID":"","Components":"","MemberOf":""}},
{"type":"Feature","geometry":{"type":"Polygon","coordinates":[[[13.02955150604248,49.2500114440918],[12.524224281311035,48.852684020996094],[11.277556419372559,49.18375015258789],[10.027185440063477,49.11750411987305],[10.528592109680176,48.257774353027344],[10.52871322631836,48.191749572753906],[10.61239242553711,47.598209381103516],[10.694906234741211,47.598209381103516],[11.024916641328776,47.56055918803566],[11.272320747375488,47.53233337402344],[11.272144317626953,47.46647262573242],[12.342669486999512,47.33478927612305],[13.177251815795898,48.059749603271484],[13.847192764282227,48.455936431884766],[13.358475685119629,48.98506164550781],[13.02955150604248,49.2500114440918]]]},"properties":{"Name":"Duchy of Bavaria","FromYear":1459,"ToYear":1506,"Area":36100.41615771284,"Type":"POLITY","Wikipedia":"Duchy of Bavaria","Wikidata":"Q47261","SeshatID":"","Components":"","MemberOf":""}},
{"type":"Feature","geometry":{"type":"Polygon","coordinates":[[[38.082881927490234,37.51277160644531],[39.50235366821289,38.22237777709961],[38.84877014160156,38.60969924926758],[36.82565689086914,38.738853454589844],[35.622135162353516,37.835243225097656],[37.01334762573242,37.706241607666016],[38.082881927490234,37.51277160644531]]]},"properties":{"Name":"Beylik of Dulkadir","FromYear":1463,"ToYear":1511,"Area":30414.404688234095,"Type":"POLITY","Wikipedia":"Beylik of Dulkadir","Wikidata":"Q1264808","SeshatID":"","Components":"","MemberOf":""}},
{"type":"Feature","geometry":{"type":"Polygon","coordinates":[[[43.20489501953125,41.71668243408203],[43.78324508666992,42.691246032714844],[43.43125534057617,42.95146560668945],[42.61702346801758,42.88639831542969],[42.38526916503906,42.041324615478516],[42.62437438964844,41.586883544921875],[43.20489501953125,41.71668243408203]]]},"properties":{"Name":"Kingdom of Imereti","FromYear":1468,"ToYear":1578,"Area":11561.12012326642,"Type":"POLITY","Wikipedia":"Kingdom of Imereti","Wikidata":"Q1069959","SeshatID":"","Components":"","MemberOf":""}},
{"type":"Feature","geometry":{"type":"Polygon","coordinates":[[[41.72419357299805,43.276947021484375],[40.17222213745117,43.6026611328125],[41.3337516784668,42.88639831542969],[41.72419357299805,43.276947021484375]]]},"properties":{"Name":"Principality of Abkhazia","FromYear":1468,"ToYear":1571,"Area":6065.707175636779,"Type":"POLITY","Wikipedia":"Principality of Abkhazia","Wikidata":"Q1760473","SeshatID":"","Components":"","MemberOf":""}},
{"type":"Feature","geometry":{"type":"Polygon","coordinates":[[[41.149749755859375,40.355369567871094],[41.237060546875,39.90232849121094],[42.46882247924805,39.70827102661133],[43.8172607421875,40.225894927978516],[43.929588317871094,40.873565673828125],[43.20489501953125,41.71668243408203],[42.62437438964844,41.586883544921875],[41.57828140258789,41.521995544433594],[40.4599723815918,41.00318908691406],[41.149749755859375,40.355369567871094]]]},"properties":{"Name":"Samtskhe-Saatabago","FromYear":1468,"ToYear":1501,"Area":42625.347117710706,"Type":"POLITY","Wikipedia":"Samtskhe-Saatabago","Wikidata":"Q2029317","SeshatID":"","Components":"","MemberOf":""}},
{"type":"Feature","geometry":{"type":"Polygon","coordinates":[[[45,40.614410400390625],[45,41.6602161082472],[44.82474899291992,42.691246032714844],[43.78324508666992,42.691246032714844],[43.20489501953125,41.71668243408203],[43.929588317871094,40.873565673828125],[45,40.614410400390625]]]},"properties":{"Name":"Kingdom of Georgia","FromYear":1468,"ToYear":1506,"Area":27592.669985895725,"Type":"POLITY","Wikipedia":"Kingdom of Georgia","Wikidata":"Q154667","SeshatID":"","Components":"","MemberOf":""}},
{"type":"Feature","geometry":{"type":"Polygon","coordinates":[[[42.38526916503906,42.041324615478516],[42.61702346801758,42.88639831542969],[43.43125534057617,42.95146560668945],[41.72419357299805,43.276947021484375],[41.3337516784668,42.88639831542969],[41.75791549682617,42.10627746582031],[42.38526916503906,42.041324615478516]]]},"properties":{"Name":"Principality of Mingrelia","FromYear":1468,"ToYear":1571,"Area":13250.73527470155,"Type":"POLITY","Wikipedia":"Principality of Mingrelia","Wikidata":"Q2907860","SeshatID":"","Components":"","MemberOf":""}},
{"type":"Feature","geometry":{"type":"Polygon","coordinates":[[[45,48.527701946666994],[45,56.086618076743854],[42.22627258300781,55.83982467651367],[41.805965423583984,55.90821838378906],[42.2338752746582,55.225467681884766],[41.77260208129883,54.138362884521484],[39.8572998046875,53.732303619384766],[39.167301177978516,53.732303619384766],[38.540340423583984,54.74907684326172],[35.931175231933594,54.341712951660156],[35.765281677246094,53.124786376953125],[37.964942932128906,51.78114318847656],[37.543670654296875,49.64793395996094],[37.83888244628906,48.98506164550781],[36.85371017456055,48.5881233215332],[37.4256477355957,48.059749603271484],[39.220611572265625,47.46647262573242],[39.30305862426758,47.46647262573242],[39.385501861572266,47.46647262573242],[42.04615783691406,46.74290466308594],[43.51004409790039,46.677207946777344],[45,48.527701946666994]]]},"properties":{"Name":"Golden Horde","FromYear":1468,"ToYear":1501,"Area":550157.1474409857,"Type":"POLITY","Wikipedia":"Golden Horde","Wikidata":"Q79965","SeshatID":"","Components":"","MemberOf":""}},
{"type":"Feature","geometry":{"type":"Polygon","coordinates":[[[40.96498489379883,34.42197799682617],[39.88418197631836,35.708900451660156],[38.13286590576172,35.9664192199707],[38.082881927490234,37.51277160644531],[37.01334762573242,37.706241607666016],[36.215576171875,36.8681755065918],[35.84488296508789,35.58015823364258],[36.048770904541016,34.55062484741211],[34.2972412109375,31.271915435791016],[32.8316764831543,31.014846801757812],[31.875221252441406,31.464719772338867],[30.351730346679688,31.464719772338867],[29.3970890045166,30.822044372558594],[26.847702026367188,31.464719772338867],[25.248035430908203,31.464719772338867],[24.892484664916992,31.978878021240234],[23.29851722717285,32.171695709228516],[23.089431762695312,32.62162780761719],[21.108016967773438,32.81447219848633],[20.089075088500977,32.107421875],[20.202085494995117,30.886310577392578],[18.869278136051307,30.25166235864125],[18.8246491043041,30.050809860229492],[20.95157814025879,30.564971923828125],[21.938846588134766,30.564971923828125],[23.4851892093249,30],[38.974904333614376,30],[38.72636795043945,32.94303894042969],[39.4992790222168,33.71455001831055],[40.96498489379883,34.42197799682617]]]},"properties":{"Name":"Mamluk Sultanate","FromYear":1468,"ToYear":1515,"Area":1480793.7527903141,"Type":"POLITY","Wikipedia":"Mamluk Sultanate","Wikidata":"Q282428","SeshatID":"eg_mamluk_sultanate_3","Components":"","MemberOf":""}},
{"type":"Feature","geometry":{"type":"Polygon","coordinates":[[[36.215576171875,36.8681755065918],[37.01334762573242,37.706241607666016],[35.622135162353516,37.835243225097656],[33.75169372558594,37.12596130371094],[33.6623649597168,36.2239875793457],[34.892860412597656,36.8681755065918],[36.215576171875,36.8681755065918]]]},"properties":{"Name":"Ramadanid Emirate","FromYear":1468,"ToYear":1511,"Area":24477.166662350934,"Type":"POLITY","Wikipedia":"Ramadanid Emirate","Wikidata":"Q2261321","SeshatID":"tr_ramadanid_emirate","Components":"","MemberOf":""}},
{"type":"Feature","geometry":{"type":"Polygon","coordinates":[[[45,41.6602161082472],[44.90486526489258,42.691246032714844],[44.82474899291992,42.691246032714844],[45,41.6602161082472]]]},"properties":{"Name":"Kingdom of Kakheti","FromYear":1468,"ToYear":1578,"Area":23443.375009812742,"Type":"POLITY","Wikipedia":"Kingdom of Kakheti","Wikidata":"Q1209822","SeshatID":"","Components":"","MemberOf":""}},
{"type":"Feature","geometry":{"type":"Polygon","coordinates":[[[41.75791549682617,42.10627746582031],[41.57828140258789,41.521995544433594],[42.62437438964844,41.586883544921875],[42.38526916503906,42.041324615478516],[41.75791549682617,42.10627746582031]]]},"properties":{"Name":"Principality of Guria","FromYear":1468,"ToYear":1506,"Area":4180.368261538124,"Type":"POLITY","Wikipedia":"Principality of Guria","Wikidata":"Q2195101","SeshatID":"","Components":"","MemberOf":""}},
{"type":"Feature","geometry":{"type":"Polygon","coordinates":[[[43.51004409790039,46.677207946777344],[43.83160400390625,45.431331634521484],[45,44.98171606444023],[45,48.527701946666994],[43.51004409790039,46.677207946777344]]]},"properties":{"Name":"Astrakhan Khanate","FromYear":1475,"ToYear":1501,"Area":161771.5583688353,"Type":"POLITY","Wikipedia":"Astrakhan Khanate","Wikidata":"Q210163","SeshatID":"ru_astrakhan_khanate","Components":"","MemberOf":""}},
{"type":"Feature","geometry":{"type":"Polygon","coordinates":[[[-2.106868505477905,55.90821838378906],[-2.789952516555786,56.524986267089844],[-1.852917313575745,57.696231842041016],[-3.734920263290405,57.7653923034668],[-3.136410236358643,58.73685073852539],[-5.198037147521973,58.66725540161133],[-6.292484283447266,56.319149017333984],[-4.768880844116211,55.430015563964844],[-5.110523223876953,54.681121826171875],[-3.402623414993286,54.95309066772461],[-2.106868505477905,55.90821838378906]]]},"properties":{"Name":"Kingdom of Scotland","FromYear":1475,"ToYear":1551,"Area":88867.57441921948,"Type":"POLITY","Wikipedia":"Kingdom of Scotland","Wikidata":"Q230791","SeshatID":"gb_scotland_k","Components":"","MemberOf":""}},
{"type":"Feature","geometry":{"type":"Polygon","coordinates":[[[40.96498489379883,34.42197799682617],[41.426979064941406,33.77885055541992],[43.152584075927734,32.81447219848633],[45,30.967295723148133],[45,40.614410400390625],[43.929588317871094,40.873565673828125],[43.8172607421875,40.225894927978516],[42.46882247924805,39.70827102661133],[41.237060546875,39.90232849121094],[41.149749755859375,40.355369567871094],[39.649112701416016,39.8376350402832],[40.17645263671875,39.1264533996582],[38.84877014160156,38.60969924926758],[39.50235366821289,38.22237777709961],[38.082881927490234,37.51277160644531],[38.13286590576172,35.9664192199707],[39.88418197631836,35.708900451660156],[40.96498489379883,34.42197799682617]]]},"properties":{"Name":"Aq Qoyunlu","FromYear":1475,"ToYear":1501,"Area":1701512.0044218383,"Type":"POLITY","Wikipedia":"Aq Qoyunlu","Wikidata":"Q555994","SeshatID":"ir_ak_koyunlu","Components":"","MemberOf":""}},
{"type":"Feature","geometry":{"type":"MultiPolygon","coordinates":[[[[10.884882926940918,54.95309066772461],[9.750565528869629,55.56651306152344],[10.458671569824219,57.7653923034668],[7.979492664337158,56.662349700927734],[8.892172813415527,53.86756134033203],[10.792462348937988,54.00291442871094],[9.9271879196167,54.545284271240234],[10.884882926940918,54.95309066772461]]],[[[10.884882926940918,54.95309066772461],[12.101152420043945,54.74907684326172],[12.202529907226562,55.56651306152344],[14.296913146972656,55.36180877685547],[14.76668930053711,56.182064056396484],[16.62702751159668,56.387733459472656],[16.83926010131836,58.45867156982422],[18.414575576782227,59.08528518676758],[19.027153356136658,60],[5.192194471418304,60],[6.026472091674805,59.36461639404297],[5.514988899230957,58.59769821166992],[6.611622333526611,58.042335510253906],[8.66648006439209,58.31977081298828],[10.555644989013672,59.36461639404297],[11.792279243469238,57.41988754272461],[12.75311279296875,56.662349700927734],[11.331932067871094,56.04508590698242],[10.884882926940918,54.95309066772461]]]]},"properties":{"Name":"(Kalmar Union)","FromYear":1482,"ToYear":1501,"Area":1285990.3751069766,"Type":"POLITY","Wikipedia":"Kalmar Union","Wikidata":"Q62623","SeshatID":"sv_kalmar_union","Components":"Kalmar Union","MemberOf":""}},
{"type":"Feature","geometry":{"type":"Polygon","coordinates":[[[29.58440589904785,56.86860656738281],[28.780460357666016,58.94581604003906],[28.03827770943572,59.36459514969338],[28.038253784179688,59.36461639404297],[28.026525497436523,59.294734954833984],[27.731943130493164,59.15507125854492],[27.54010581970215,58.528167724609375],[27.664058685302734,58.180992126464844],[27.72037696838379,57.97305679321289],[27.901763916015625,56.86860656738281],[29.58440589904785,56.86860656738281]]]},"properties":{"Name":"Pskov Republic","FromYear":1482,"ToYear":1506,"Area":21733.602819868924,"Type":"POLITY","Wikipedia":"Pskov Republic","Wikidata":"Q317078","SeshatID":"","Components":"","MemberOf":""}},
{"type":"Feature","geometry":{"type":"MultiPolygon","coordinates":[[[[3.728644609451294,46.54585266113281],[3.583402872085571,47.92780685424805],[2.429348230361938,47.86185836791992],[2.895960330963135,46.808616638183594],[3.728644609451294,46.54585266113281]]],[[[4.493024826049805,49.91355895996094],[4.642117318882938,49.57728180262361],[4.601894857198655,49.71431350708008],[4.582405090332031,49.78071212768555],[4.579616546630859,49.84712600708008],[4.53490746876139,49.91355895996094],[4.493024826049805,49.91355895996094]]]]},"properties":{"Name":"County of Nevers","FromYear":1482,"ToYear":1518,"Area":13561.428188936437,"Type":"POLITY","Wikipedia":"County of Nevers","Wikidata":"Q2070440","SeshatID":"fr_valois_k_2","Components":"","MemberOf":"(Kingdom of France)"}},
{"type":"Feature","geometry":{"type":"Polygon","coordinates":[[[4.799726963043213,44.12431716918945],[5.288479328155518,43.99384307861328],[5.110112190246582,44.5159797668457],[4.8542766863815885,44.21753186502837],[4.973548851088087,44.241773018617515],[5.012281908400454,44.21131287729043],[4.99188536214119,44.17651569530577],[4.799726963043213,44.12431716918945]]]},"properties":{"Name":"Comtat Venaissin","FromYear":1482,"ToYear":1672,"Area":2319.0044556150337,"Type":"POLITY","Wikipedia":"Comtat Venaissin","Wikidata":"Q1122980","SeshatID":"","Components":"","MemberOf":""}},
{"type":"Feature","geometry":{"type":"MultiPolygon","coordinates":[[[[10.884882926940918,54.95309066772461],[9.750565528869629,55.56651306152344],[10.458671569824219,57.7653923034668],[7.979492664337158,56.662349700927734],[8.892172813415527,53.86756134033203],[10.792462348937988,54.00291442871094],[9.9271879196167,54.545284271240234],[10.884882926940918,54.95309066772461]]],[[[10.884882926940918,54.95309066772461],[12.101152420043945,54.74907684326172],[12.202529907226562,55.56651306152344],[14.296913146972656,55.36180877685547],[14.76668930053711,56.182064056396484],[16.62702751159668,56.387733459472656],[16.83926010131836,58.45867156982422],[18.414575576782227,59.08528518676758],[19.027153356136658,60],[5.192194471418304,60],[6.026472091674805,59.36461639404297],[5.514988899230957,58.59769821166992],[6.611622333526611,58.042335510253906],[8.66648006439209,58.31977081298828],[10.555644989013672,59.36461639404297],[11.792279243469238,57.41988754272461],[12.75311279296875,56.662349700927734],[11.331932067871094,56.04508590698242],[10.884882926940918,54.95309066772461]]]]},"properties":{"Name":"Kalmar Union","FromYear":1482,"ToYear":1501,"Area":1285990.3751069766,"Type":"POLITY","Wikipedia":"Kalmar Union","Wikidata":"Q62623","SeshatID":"sv_kalmar_union","Components":"","MemberOf":"(Kalmar Union)"}},
{"type":"Feature","geometry":{"type":"Polygon","coordinates":[[[13.90514087677002,42.95146560668945],[12.312999725341797,44.18956756591797],[12.156049728393555,44.71194839477539],[11.751571655273438,44.842647552490234],[11.589669227600098,44.908016204833984],[11.182066917419434,44.32010269165039],[12.226542472839355,43.6026611328125],[11.900826454162598,43.146724700927734],[11.574831008911133,42.36617660522461],[12.604641914367676,41.521995544433594],[13.792884826660156,41.19768524169922],[13.804443359375,41.84651184082031],[12.856051445007324,42.496177673339844],[13.90514087677002,42.95146560668945]]]},"properties":{"Name":"Papal States","FromYear":1487,"ToYear":1506,"Area":39617.45328801246,"Type":"POLITY","Wikipedia":"Papal States","Wikidata":"Q170174","SeshatID":"it_papal_state_2","Components":"","MemberOf":""}},
{"type":"Feature","geometry":{"type":"MultiPolygon","coordinates":[[[[2.074539184570312,51.112430572509766],[1.6365936370134901,50.912200927734375],[1.666910892090524,50.87878268347631],[1.697111228697703,50.84549331665039],[1.75760805606842,50.77880859375],[2.007492200242073,50.82881604968416],[2.090827465057373,50.84549331665039],[2.074539184570312,51.112430572509766]]],[[[-3.402623414993286,54.95309066772461],[-3.152528285980225,53.462066650390625],[-4.701662540435791,53.462066650390625],[-4.156738758087158,52.4518928527832],[-5.218731880187988,52.0491943359375],[-4.201729774475098,51.31283950805664],[-5.768607616424561,50.2459831237793],[-5.151133060455322,49.98000717163086],[-3.456606388092041,50.64549255371094],[0.492853790521622,50.77880859375],[1.739019155502319,52.38472366333008],[0.316494405269623,53.124786376953125],[-0.294801265001297,54.27390670776367],[-1.285956144332886,54.681121826171875],[-2.106868505477905,55.90821838378906],[-3.402623414993286,54.95309066772461]]]]},"properties":{"Name":"Kingdom of England","FromYear":1487,"ToYear":1501,"Area":166387.92535438616,"Type":"POLITY","Wikipedia":"Kingdom of England","Wikidata":"Q179876","SeshatID":"gb_tudor_stuart","Components":"","MemberOf":"(Kingdom of England)"}},
{"type":"Feature","geometry":{"type":"MultiPolygon","coordinates":[[[[2.074539184570312,51.112430572509766],[1.6365936370134901,50.912200927734375],[1.666910892090524,50.87878268347631],[1.697111228697703,50.84549331665039],[1.75760805606842,50.77880859375],[2.007492200242073,50.82881604968416],[2.090827465057373,50.84549331665039],[2.074539184570312,51.112430572509766]]],[[[-3.402623414993286,54.95309066772461],[-3.152528285980225,53.462066650390625],[-4.701662540435791,53.462066650390625],[-4.156738758087158,52.4518928527832],[-5.218731880187988,52.0491943359375],[-4.201729774475098,51.31283950805664],[-5.768607616424561,50.2459831237793],[-5.151133060455322,49.98000717163086],[-3.456606388092041,50.64549255371094],[0.492853790521622,50.77880859375],[1.739019155502319,52.38472366333008],[0.316494405269623,53.124786376953125],[-0.294801265001297,54.27390670776367],[-1.285956144332886,54.681121826171875],[-2.106868505477905,55.90821838378906],[-3.402623414993286,54.95309066772461]]]]},"properties":{"Name":"(Kingdom of England)","FromYear":1487,"ToYear":1501,"Area":166387.92535438616,"Type":"POLITY","Wikipedia":"Kingdom of England","Wikidata":"Q179876","SeshatID":"gb_tudor_stuart","Components":"Kingdom of England","MemberOf":""}},
{"type":"Feature","geometry":{"type":"MultiPolygon","coordinates":[[[[36.2602653503418,45.431331634521484],[35.01994323730469,45.300437927246094],[34.544586181640625,45.95537567138672],[32.60533905029297,45.496795654296875],[33.55644607543945,44.71194839477539],[34.03373718261719,44.64661407470703],[34.12387227405638,44.71187656285562],[34.12426874419686,44.71216362783144],[34.475921630859375,44.908016204833984],[34.55707931518555,44.908016204833984],[35.39760208129883,45.10417556762695],[36.3826904296875,45.169586181640625],[36.23013687133789,45.23500442504883],[36.2602653503418,45.431331634521484]]],[[[36.778892517089844,45.10417556762695],[37.097006942742574,45.06057100298558],[37.17651599041221,45.04967254278036],[40.378814697265625,46.1520881652832],[41.67831039428711,45.23500442504883],[42.4741096496582,46.414546966552734],[42.04615783691406,46.74290466308594],[39.385501861572266,47.46647262573242],[39.2203369140625,47.005828857421875],[37.216339111328125,45.300437927246094],[36.93586748092214,45.3789491163904],[36.74873733520508,45.431331634521484],[36.778892517089844,45.10417556762695]]],[[[35.496402740478516,48.91886520385742],[35.026123046875,47.53233337402344],[33.69384002685547,46.87434005737305],[31.835351943969727,46.480194091796875],[34.736690521240234,46.1520881652832],[35.634639739990234,46.677207946777344],[39.149861151642114,47.37866029409693],[39.214670714251604,47.43354035500728],[39.220611572265625,47.46647262573242],[37.4256477355957,48.059749603271484],[36.85371017456055,48.5881233215332],[35.496402740478516,48.91886520385742]]]]},"properties":{"Name":"Crimean Khanate","FromYear":1487,"ToYear":1501,"Area":136476.7354275064,"Type":"POLITY","Wikipedia":"Crimean Khanate","Wikidata":"Q160440","SeshatID":"ru_crimean_khanate","Components":"","MemberOf":""}},
{"type":"Feature","geometry":{"type":"Polygon","coordinates":[[[29.221864700317383,47.26897048950195],[27.39371109008789,48.654239654541016],[25.246307373046875,48.786521911621094],[24.90500259399414,47.79592514038086],[26.477930068969727,46.1520881652832],[26.10191535949707,45.62776184082031],[27.861310958862305,45.300437927246094],[29.57166290283203,46.74290466308594],[29.221864700317383,47.26897048950195]]]},"properties":{"Name":"Principality of Moldavia","FromYear":1487,"ToYear":1506,"Area":82069.12705600864,"Type":"POLITY","Wikipedia":"Moldavia","Wikidata":"Q10957559","SeshatID":"md_moldavia_principality_1","Components":"","MemberOf":""}},
{"type":"Feature","geometry":{"type":"Polygon","coordinates":[[[10.212483406066895,43.92862319946289],[10.776015281677246,42.95146560668945],[11.900826454162598,43.146724700927734],[12.226542472839355,43.6026611328125],[11.182066917419434,44.32010269165039],[10.212483406066895,43.92862319946289]]]},"properties":{"Name":"Republic of Florence","FromYear":1487,"ToYear":1506,"Area":12064.76439801248,"Type":"POLITY","Wikipedia":"Republic of Florence","Wikidata":"Q148540","SeshatID":"it_florence_rep","Components":"","MemberOf":""}},
{"type":"Feature","geometry":{"type":"MultiPolygon","coordinates":[[[[6.983439445495605,47.53233337402344],[7.06591796875,47.53233337402344],[7.156311661674072,47.514367100254006],[7.39728307723999,47.46647262573242],[7.43708244861018,47.53233337402344],[7.476891040802002,47.598209381103516],[7.559404373168945,47.598209381103516],[7.056310653686523,47.92780685424805],[6.890934467315674,47.92780685424805],[6.983439445495605,47.53233337402344]]],[[[7.56217098236084,47.46647262573242],[8.218400955200195,47.664100646972656],[8.210589408874512,48.1257438659668],[7.560789108276367,47.53233337402344],[7.56217098236084,47.46647262573242]]],[[[14.277569770812988,45.36587905883789],[16.01764488220215,46.348915100097656],[16.84486961364746,48.72037124633789],[14.940543174743652,48.98506164550781],[14.100465774536133,48.654239654541016],[13.847192764282227,48.455936431884766],[13.177251815795898,48.059749603271484],[13.738253593444824,47.07159423828125],[12.342669486999512,47.33478927612305],[11.272144317626953,47.46647262573242],[10.94240665435791,47.53233337402344],[10.694906234741211,47.598209381103516],[10.61239242553711,47.598209381103516],[10.367905616760254,46.61152267456055],[10.5320405960083,46.54585266113281],[12.09045124053955,46.677207946777344],[13.563776969909668,46.480194091796875],[13.633292198181152,45.75876998901367],[13.710229873657227,45.496795654296875],[14.026969909667969,45.03877639770508],[14.277569770812988,45.36587905883789]]]]},"properties":{"Name":"House of Habsburg","FromYear":1492,"ToYear":1501,"Area":100454.35897088084,"Type":"POLITY","Wikipedia":"House of Habsburg","Wikidata":"Q65968","SeshatID":"at_habsburg_1","Components":"","MemberOf":"(Habsburg Monarchy)"}},
{"type":"Feature","geometry":{"type":"Polygon","coordinates":[[[24.90500259399414,47.79592514038086],[23.666343688964844,48.786521911621094],[21.79827117919922,49.38258361816406],[20.453577041625977,49.2500114440918],[18.88353729248047,49.51522445678711],[16.84486961364746,48.72037124633789],[16.01764488220215,46.348915100097656],[14.277569770812988,45.36587905883789],[14.59854507446289,45.169586181640625],[14.705873954494141,45.12597788336516],[14.757952549930629,45.03877822926232],[14.757952513026673,45.03877670306789],[15.028629145527555,44.5159797668457],[15.06858201388312,44.49419194994971],[15.148378372192383,44.45067596435547],[15.146636962890625,44.38538360595703],[16.26409912109375,43.92862319946289],[16.544801712036133,45.03877639770508],[17.765867233276367,45.10417556762695],[19.0333309173584,44.45067596435547],[20.2659912109375,44.77729415893555],[22.531999588012695,44.71194839477539],[23.483562469482422,45.496795654296875],[26.10191535949707,45.62776184082031],[26.477930068969727,46.1520881652832],[24.90500259399414,47.79592514038086]]]},"properties":{"Name":"Kingdom of Hungary","FromYear":1492,"ToYear":1520,"Area":337523.500835957,"Type":"POLITY","Wikipedia":"Kingdom of Hungary","Wikidata":"Q171150","SeshatID":"hu_later_dyn","Components":"","MemberOf":""}},
{"type":"Feature","geometry":{"type":"MultiPolygon","coordinates":[[[[18.88353729248047,49.51522445678711],[19.18613052368164,50.37908172607422],[16.131103515625,51.71418380737305],[15.646231651306152,52.31757736206055],[14.779444694519043,51.91512680053711],[13.422128677368164,52.0491943359375],[14.259305000305176,51.580322265625],[14.334224700927734,51.24601745605469],[14.153997421264648,50.84549331665039],[12.12234115600586,50.2459831237793],[12.12159538269043,50.17946243286133],[13.02955150604248,49.2500114440918],[13.358475685119629,48.98506164550781],[14.100465774536133,48.654239654541016],[14.940543174743652,48.98506164550781],[16.84486961364746,48.72037124633789],[18.88353729248047,49.51522445678711]]],[[[13.502351760864258,51.84812545776367],[13.667257308959961,51.64724349975586],[13.670628547668457,51.78114318847656],[13.586510930577386,51.81462605314726],[13.502351760864258,51.84812545776367]]]]},"properties":{"Name":"Kingdom of Bohemia","FromYear":1492,"ToYear":1501,"Area":128616.7885859367,"Type":"POLITY","Wikipedia":"Kingdom of Bohemia","Wikidata":"Q42585","SeshatID":"cz_bohemian_k_2","Components":"","MemberOf":"(Kingdom of Bohemia)"}},
{"type":"Feature","geometry":{"type":"MultiPolygon","coordinates":[[[[18.88353729248047,49.51522445678711],[19.18613052368164,50.37908172607422],[16.131103515625,51.71418380737305],[15.646231651306152,52.31757736206055],[14.779444694519043,51.91512680053711],[13.422128677368164,52.0491943359375],[14.259305000305176,51.580322265625],[14.334224700927734,51.24601745605469],[14.153997421264648,50.84549331665039],[12.12234115600586,50.2459831237793],[12.12159538269043,50.17946243286133],[13.02955150604248,49.2500114440918],[13.358475685119629,48.98506164550781],[14.100465774536133,48.654239654541016],[14.940543174743652,48.98506164550781],[16.84486961364746,48.72037124633789],[18.88353729248047,49.51522445678711]]],[[[13.502351760864258,51.84812545776367],[13.667257308959961,51.64724349975586],[13.670628547668457,51.78114318847656],[13.586510930577386,51.81462605314726],[13.502351760864258,51.84812545776367]]]]},"properties":{"Name":"(Kingdom of Bohemia)","FromYear":1492,"ToYear":1501,"Area":128616.7885859367,"Type":"POLITY","Wikipedia":"Kingdom of Bohemia","Wikidata":"Q42585","SeshatID":"cz_bohemian_k_2","Components":"Kingdom of Bohemia","MemberOf":""}},
{"type":"Feature","geometry":{"type":"MultiPolygon","coordinates":[[[[11.119558334350586,51.31283950805664],[12.12234115600586,50.2459831237793],[14.153997421264648,50.84549331665039],[14.334224700927734,51.24601745605469],[14.259305000305176,51.580322265625],[13.422128677368164,52.0491943359375],[12.402885437011719,52.18334197998047],[12.051520347595215,51.37968063354492],[11.205464363098145,51.51342010498047],[11.205038704846285,51.44648980751097],[11.119930267333984,51.37968063354492],[11.119558334350586,51.31283950805664]],[[12.644350051879883,51.37968063354492],[12.730218887329102,51.44654083251953],[12.899682998657227,51.44654083251953],[12.89716625213623,51.31283950805664],[12.728649964195576,51.35739289639821],[12.644350051879883,51.37968063354492]],[[13.502351760864258,51.84812545776367],[13.586510930577386,51.81462605314726],[13.670628547668457,51.78114318847656],[13.667257308959961,51.64724349975586],[13.502351760864258,51.84812545776367]]],[[[12.773716693084129,50.701026902979905],[12.806585311889648,50.97892379760742],[12.739926026413464,50.77880859375],[12.717718124389648,50.71213912963867],[12.773716693084129,50.701026902979905]]]]},"properties":{"Name":"Electorate of Saxony","FromYear":1492,"ToYear":1501,"Area":34252.153537411374,"Type":"POLITY","Wikipedia":"Electorate of Saxony","Wikidata":"Q156199","SeshatID":"","Components":"","MemberOf":""}},
{"type":"Feature","geometry":{"type":"MultiPolygon","coordinates":[[[[24.90500259399414,47.79592514038086],[23.666343688964844,48.786521911621094],[21.79827117919922,49.38258361816406],[20.453577041625977,49.2500114440918],[18.88353729248047,49.51522445678711],[19.18613052368164,50.37908172607422],[16.131103515625,51.71418380737305],[15.646231651306152,52.31757736206055],[14.779444694519043,51.91512680053711],[13.422128677368164,52.0491943359375],[14.259305000305176,51.580322265625],[14.334224700927734,51.24601745605469],[14.153997421264648,50.84549331665039],[12.12234115600586,50.2459831237793],[12.12159538269043,50.17946243286133],[13.02955150604248,49.2500114440918],[13.358475685119629,48.98506164550781],[14.100465774536133,48.654239654541016],[14.940543174743652,48.98506164550781],[16.84486961364746,48.72037124633789],[16.01764488220215,46.348915100097656],[14.277569770812988,45.36587905883789],[14.59854507446289,45.169586181640625],[14.705873954494141,45.12597788336516],[14.757952549930629,45.03877822926232],[14.757952513026673,45.03877670306789],[15.028629145527555,44.5159797668457],[15.06858201388312,44.49419194994971],[15.148378372192383,44.45067596435547],[15.146636962890625,44.38538360595703],[16.26409912109375,43.92862319946289],[16.544801712036133,45.03877639770508],[17.765867233276367,45.10417556762695],[19.0333309173584,44.45067596435547],[20.2659912109375,44.77729415893555],[22.531999588012695,44.71194839477539],[23.483562469482422,45.496795654296875],[26.10191535949707,45.62776184082031],[26.477930068969727,46.1520881652832],[24.90500259399414,47.79592514038086]]],[[[13.502351760864258,51.84812545776367],[13.667257308959961,51.64724349975586],[13.670628547668457,51.78114318847656],[13.586510930577386,51.81462605314726],[13.502351760864258,51.84812545776367]]]]},"properties":{"Name":"(Personal union of Kingdom of Bohemia with Kingdom of Hungary)","FromYear":1492,"ToYear":1501,"Area":466140.2894218936,"Type":"RELATION","Wikipedia":"Vladislaus II of Hungary","Wikidata":"Q155599","SeshatID":"cz_bohemian_k_2;hu_later_dyn","Components":"Kingdom of Bohemia;Kingdom of Hungary;(Kingdom of Bohemia)","MemberOf":""}},
{"type":"Feature","geometry":{"type":"MultiPolygon","coordinates":[[[[40.38059616088867,41.00318908691406],[38.535701751708984,40.873565673828125],[36.20920181274414,41.26253128051758],[35.953800201416016,41.71668243408203],[32.630775451660156,41.911441802978516],[31.1800537109375,41.06801223754883],[28.96312141418457,41.132843017578125],[27.494890213012695,42.43117141723633],[28.48109245300293,43.472347259521484],[28.576906204223633,44.38538360595703],[29.525348663330078,44.908016204833984],[30.41866111755371,46.283294677734375],[29.57166290283203,46.74290466308594],[27.861310958862305,45.300437927246094],[27.828874588012695,44.18956756591797],[26.281423568725586,44.05907440185547],[25.434297561645508,43.6026611328125],[22.951791763305664,43.79821014404297],[22.531999588012695,44.71194839477539],[20.2659912109375,44.77729415893555],[19.0333309173584,44.45067596435547],[17.765867233276367,45.10417556762695],[16.544801712036133,45.03877639770508],[16.26409912109375,43.92862319946289],[17.36538314819336,43.211830139160156],[17.440576553344727,43.08163070678711],[17.520870208740234,43.08163070678711],[17.518268585205078,43.016544342041016],[17.518270340175995,43.016544342041016],[18.306493759155273,42.691246032714844],[19.389352798461914,41.911441802978516],[19.453214645385742,41.586883544921875],[19.428295135498047,41.06801223754883],[19.918411254882812,39.70827102661133],[20.91095733642578,39.06184005737305],[21.67182159423828,36.9970588684082],[23.056013107299805,36.67487716674805],[22.71442985534668,37.5772590637207],[23.9786319732666,37.835243225097656],[23.563383102416992,38.738853454589844],[22.935583114624023,38.738853454589844],[22.654850006103516,40.614410400390625],[23.73737335205078,40.225894927978516],[24.34656524658203,41.00318908691406],[26.082168579101562,40.873565673828125],[26.12574023238567,40.6791877746582],[26.921367645263672,40.4848747253418],[27.527481079101562,41.06801223754883],[29.115554809570312,41.06801223754883],[29.046321868896484,40.355369567871094],[26.2723331451416,40.29063034057617],[26.132457733154297,39.51427459716797],[26.84657859802246,39.57893371582031],[26.594974517822266,38.351463317871094],[27.22254180908203,37.3193473815918],[29.124916076660156,36.73930740356445],[29.239721298217773,36.2239875793457],[30.49193572998047,36.3527946472168],[30.619068145751953,36.932613372802734],[32.06806182861328,36.61045455932617],[32.558349609375,36.03080368041992],[33.6623649597168,36.2239875793457],[33.75169372558594,37.12596130371094],[35.622135162353516,37.835243225097656],[36.82565689086914,38.738853454589844],[38.84877014160156,38.60969924926758],[40.17645263671875,39.1264533996582],[39.649112701416016,39.8376350402832],[41.149749755859375,40.355369567871094],[40.4599723815918,41.00318908691406],[40.38059616088867,41.00318908691406]]],[[[33.52096176147461,44.45067596435547],[35.39760208129883,45.10417556762695],[34.55707931518555,44.908016204833984],[34.475921630859375,44.908016204833984],[34.12426874419686,44.71216362783144],[34.12387227405638,44.71187656285562],[34.03373718261719,44.64661407470703],[33.55644607543945,44.71194839477539],[33.48467410096275,44.58129119873047],[33.50281899102185,44.5159797668457],[33.52096176147461,44.45067596435547]]],[[[36.23013687133789,45.23500442504883],[36.3826904296875,45.169586181640625],[36.2602653503418,45.431331634521484],[36.23013687133789,45.23500442504883]]],[[[39.385501861572266,47.46647262573242],[39.30305862426758,47.46647262573242],[39.214670714251604,47.43354035500728],[39.149861151642114,47.37866029409693],[39.2203369140625,47.005828857421875],[39.385501861572266,47.46647262573242]]]]},"properties":{"Name":"Ottoman Empire","FromYear":1492,"ToYear":1501,"Area":930754.8602209121,"Type":"POLITY","Wikipedia":"Ottoman Empire","Wikidata":"Q12560","SeshatID":"tr_ottoman_emp_1","Components":"","MemberOf":""}},
{"type":"Feature","geometry":{"type":"MultiPolygon","coordinates":[[[[19.389352798461914,41.911441802978516],[18.306493759155273,42.691246032714844],[18.303630828857422,42.62621307373047],[18.38198386309512,42.58717247217962],[19.389352798461914,41.911441802978516]]],[[[17.520870208740234,43.08163070678711],[17.440576553344727,43.08163070678711],[17.515670776367188,42.95146560668945],[17.518270340175995,43.016544342041016],[17.520870208740234,43.08163070678711]]],[[[17.36538314819336,43.211830139160156],[16.26409912109375,43.92862319946289],[15.146636962890625,44.38538360595703],[15.218687057495117,44.05907440185547],[17.36538314819336,43.211830139160156]]],[[[15.067441940307617,44.45067596435547],[15.146636962890625,44.38538360595703],[15.148378372192383,44.45067596435547],[15.067441940307617,44.45067596435547]]],[[[15.067441940307617,44.45067596435547],[15.06858201388312,44.49419194994971],[15.028629145527555,44.5159797668457],[15.067441940307617,44.45067596435547]]],[[[14.59854507446289,45.169586181640625],[14.757952513026673,45.03877670306789],[14.757952549930629,45.03877822926232],[14.705873954494141,45.12597788336516],[14.59854507446289,45.169586181640625]]],[[[12.238323211669922,44.842647552490234],[12.162785530090332,45.496795654296875],[13.307992935180664,45.82429504394531],[13.563776969909668,46.480194091796875],[12.09045124053955,46.677207946777344],[11.677236557006836,46.08650588989258],[10.451480865478516,45.95537567138672],[10.471641786297182,46.08650588989258],[10.532551765441895,46.283294677734375],[10.503675436234,46.29485845243355],[9.310473442077637,45.693260192871094],[10.453055381774902,45.169586181640625],[11.589669227600098,44.908016204833984],[11.751571655273438,44.842647552490234],[12.238323211669922,44.842647552490234]]],[[[34.08732223510742,35.00096893310547],[33.73737716674805,35.38706970214844],[32.24578857421875,35.12965774536133],[33.04356002807617,34.55062484741211],[34.08732223510742,35.00096893310547]]],[[[24.149879455566406,35.38706970214844],[24.823745727539062,35.00096893310547],[26.140073776245117,35.065311431884766],[24.149879455566406,35.38706970214844]]]]},"properties":{"Name":"Republic of Venice","FromYear":1492,"ToYear":1501,"Area":63607.190018207984,"Type":"POLITY","Wikipedia":"Republic of Venice","Wikidata":"Q4948","SeshatID":"it_venetian_rep_3","Components":"","MemberOf":""}},
{"type":"Feature","geometry":{"type":"Polygon","coordinates":[[[15.646231651306152,52.31757736206055],[16.400707244873047,53.799922943115234],[14.476561546325684,53.057395935058594],[13.89604663848877,53.732303619384766],[13.196187019348145,53.32708740234375],[11.738075256347656,53.597137451171875],[11.127049446105957,52.51908493041992],[12.32740306854248,52.78806686401367],[12.402885437011719,52.18334197998047],[13.422128677368164,52.0491943359375],[14.779444694519043,51.91512680053711],[15.646231651306152,52.31757736206055]]]},"properties":{"Name":"Electorate of Brandenburg","FromYear":1492,"ToYear":1528,"Area":42292.728526053776,"Type":"POLITY","Wikipedia":"Margraviate of Brandenburg","Wikidata":"Q148499","SeshatID":"de_hohenzollern_1","Components":"","MemberOf":""}},
{"type":"Feature","geometry":{"type":"MultiPolygon","coordinates":[[[[9.141342163085938,46.283294677734375],[8.643148422241211,46.808616638183594],[9.542471885681152,47.26897048950195],[9.623783111572266,47.4006233215332],[9.043119430541992,47.730003356933594],[8.87795352935791,47.730003356933594],[8.218400955200195,47.664100646972656],[7.56217098236084,47.46647262573242],[7.563549518585205,47.4006233215332],[7.398007307355303,47.43354102151636],[7.206440033012043,47.40058305257605],[7.174039960261556,47.318332406376236],[6.826910972595215,47.20316696166992],[6.828584671020508,47.13737487792969],[7.080090999603271,46.94007873535156],[6.754786491394043,46.808616638183594],[7.174314022064209,46.414546966552734],[6.934922218322754,46.1520881652832],[7.591682910919189,46.02093505859375],[8.40185260772705,46.480194091796875],[9.141342163085938,46.283294677734375]]],[[[7.56217098236084,47.46647262573242],[7.560789108276367,47.53233337402344],[7.559404373168945,47.598209381103516],[7.476891040802002,47.598209381103516],[7.43708244861018,47.53233337402344],[7.39728307723999,47.46647262573242],[7.56217098236084,47.46647262573242]]]]},"properties":{"Name":"Swiss Confederation","FromYear":1497,"ToYear":1501,"Area":22745.37907362302,"Type":"POLITY","Wikipedia":"Switzerland","Wikidata":"Q39","SeshatID":"ch_swiss_conf_1","Components":"","MemberOf":""}},
{"type":"Feature","geometry":{"type":"Polygon","coordinates":[[[-2.121232748031616,35.065311431884766],[-2.8270103931427,35.258358001708984],[-4.754821300506592,35.194007873535156],[-5.244066715240479,35.58015823364258],[-6.004343032836914,35.38706970214844],[-6.90380334854126,33.90746307373047],[-8.551655769348145,33.32876968383789],[-8.968929290771484,32.75019073486328],[-9.38084888458252,32.107421875],[-9.859257698059082,31.336183547973633],[-9.721957173519684,30],[-5.365338324789795,30],[-3.349440097808838,32.107421875],[-1.578816890716553,33.45735549926758],[-2.121232748031616,35.065311431884766]]]},"properties":{"Name":"Wattasid dynasty","FromYear":1497,"ToYear":1501,"Area":383923.53171610384,"Type":"POLITY","Wikipedia":"Wattasid dynasty","Wikidata":"Q970799","SeshatID":"ma_wattasid_dyn","Components":"","MemberOf":""}},
{"type":"Feature","geometry":{"type":"Polygon","coordinates":[[[-7.387404441833496,37.254878997802734],[-6.985427379608154,38.997230529785156],[-6.927728176116943,41.00318908691406],[-6.254164218902588,41.45711898803711],[-6.700808048248291,41.97637939453125],[-8.928141593933105,41.911441802978516],[-8.72695255279541,40.74397277832031],[-9.553065299987793,38.738853454589844],[-8.822718620300293,38.48057174682617],[-8.70113754272461,37.12596130371094],[-7.387404441833496,37.254878997802734]]]},"properties":{"Name":"Kingdom of Portugal","FromYear":1497,"ToYear":1506,"Area":113407.14337013425,"Type":"POLITY","Wikipedia":"Kingdom of Portugal","Wikidata":"Q45670","SeshatID":"pt_portuguese_emp_1","Components":"","MemberOf":""}},
{"type":"Feature","geometry":{"type":"MultiPolygon","coordinates":[[[[5.37468433380127,46.348915100097656],[6.506691455841064,46.87434005737305],[6.504899501800537,46.94007873535156],[6.5861889852800894,46.97293773930504],[6.830254077911377,47.07159423828125],[6.826910972595215,47.20316696166992],[6.989914417266846,47.26897048950195],[6.983439445495605,47.53233337402344],[6.890934467315674,47.92780685424805],[5.818123817443848,47.86185836791992],[5.37468433380127,46.348915100097656]]],[[[5.857953548431396,49.18375015258789],[6.189843514788912,49.23675441151327],[6.272853374481201,49.2500114440918],[6.356269359588623,49.2500114440918],[6.346458435058594,49.58156967163086],[6.582399845123291,50.11296081542969],[5.058992385864258,50.445655822753906],[5.784458637237549,51.37968063354492],[5.056382656097412,52.653533935546875],[4.862768650054932,53.192195892333984],[3.738690614700317,51.64724349975586],[2.074539184570312,51.112430572509766],[2.090827465057373,50.84549331665039],[2.007492200242073,50.82881604968416],[2.010558843612671,50.77880859375],[1.95488452911377,50.312522888183594],[3.729254722595215,50.11296081542969],[4.151839256286621,50.04647445678711],[4.406350135803223,49.98000717163086],[4.47592830657959,50.312522888183594],[5.175980091094971,49.58156967163086],[5.259585380554199,49.58156967163086],[5.35286808013916,49.316287994384766],[5.685174851001257,49.36047842786613],[5.684420585632324,49.38258361816406],[6.01627254486084,49.44889450073242],[5.9349219184374205,49.38258361816406],[5.934895730439874,49.382562271687625],[5.85359001159668,49.316287994384766],[5.857953548431396,49.18375015258789]]]]},"properties":{"Name":"Habsburg Monarchy","FromYear":1497,"ToYear":1506,"Area":70908.19659572621,"Type":"POLITY","Wikipedia":"Habsburg Austria","Wikidata":"Q66504140","SeshatID":"at_habsburg_1","Components":"","MemberOf":"(Habsburg Monarchy)"}},
{"type":"Feature","geometry":{"type":"MultiPolygon","coordinates":[[[[7.310199737548828,43.79821014404297],[7.39082670211792,43.79821014404297],[8.065429538939915,43.980793520906275],[8.112696640069434,44.05900936344351],[8.112735943835727,44.05907440185547],[8.192523002624512,44.12431716918945],[8.152163205391814,44.12431716918945],[8.030961036682129,44.12431716918945],[7.62705659866333,44.12431716918945],[7.310199737548828,43.79821014404297]]],[[[9.969700813293457,44.12431716918945],[10.453055381774902,45.169586181640625],[9.310473442077637,45.693260192871094],[10.503675436234,46.29485845243355],[10.532551765441895,46.283294677734375],[10.532170295715332,46.480194091796875],[10.5320405960083,46.54585266113281],[10.367905616760254,46.61152267456055],[9.141342163085938,46.283294677734375],[8.40185260772705,46.480194091796875],[7.919662952423096,45.95537567138672],[8.338723182678223,45.23500442504883],[7.939755439758301,44.77729415893555],[7.940820693969727,44.71194839477539],[7.941880702972412,44.64661407470703],[8.429792404174805,44.5159797668457],[8.35147476196289,44.32010269165039],[8.39202956231803,44.32010269165039],[8.592522621154785,44.45067596435547],[9.159077644348145,44.45067596435547],[9.63990758187848,44.1745396319326],[9.888919830322266,44.12431716918945],[9.969700813293457,44.12431716918945]]]]},"properties":{"Name":"Duchy of Milan","FromYear":1497,"ToYear":1501,"Area":33481.749492301606,"Type":"POLITY","Wikipedia":"Duchy of Milan","Wikidata":"Q153529","SeshatID":"it_milan_duc_1","Components":"","MemberOf":""}},
{"type":"Feature","geometry":{"type":"Polygon","coordinates":[[[8.338723182678223,45.23500442504883],[7.919662952423096,45.95537567138672],[7.591682910919189,46.02093505859375],[6.934922218322754,46.1520881652832],[7.174314022064209,46.414546966552734],[6.754786491394043,46.808616638183594],[6.670964241027832,46.87434005737305],[6.506691455841064,46.87434005737305],[5.37468433380127,46.348915100097656],[4.897816181182861,45.95537567138672],[5.070321559906006,45.693260192871094],[6.134057521820068,45.56227111816406],[6.966631412506104,44.77729415893555],[6.895741939544678,44.32010269165039],[6.91260290145874,43.53750228881836],[7.229573249816895,43.79821014404297],[7.310199737548828,43.79821014404297],[7.62705659866333,44.12431716918945],[7.701082229614258,44.5159797668457],[7.695308685302734,44.842647552490234],[8.338723182678223,45.23500442504883]]]},"properties":{"Name":"County of Savoy","FromYear":1497,"ToYear":1511,"Area":35734.3139973107,"Type":"POLITY","Wikipedia":"County of Savoy","Wikidata":"Q1232887","SeshatID":"","Components":"","MemberOf":""}},
{"type":"Feature","geometry":{"type":"MultiPolygon","coordinates":[[[[-1.853058218955994,43.407203674316406],[-4.990375518798828,43.407203674316406],[-8.243616104125977,43.73301696777344],[-9.30460262298584,43.146724700927734],[-8.928141593933105,41.911441802978516],[-6.700808048248291,41.97637939453125],[-6.254164218902588,41.45711898803711],[-6.927728176116943,41.00318908691406],[-6.985427379608154,38.997230529785156],[-7.387404441833496,37.254878997802734],[-6.432291984558105,36.9970588684082],[-5.584750652313232,36.03080368041992],[-4.468626022338867,36.73930740356445],[-2.061630010604858,36.80373764038086],[-1.708719491958618,37.44829177856445],[-0.704753637313843,37.641746520996094],[-0.436175793409348,38.48057174682617],[0.099359586834908,38.738853454589844],[-0.345421016216278,39.70827102661133],[1.238392949104309,41.19768524169922],[3.116764783859253,41.911441802978516],[2.990521192550659,43.016544342041016],[2.749729871749878,43.016544342041016],[1.80907130241394,42.56119155883789],[1.485537886619568,42.62621307373047],[-0.938149929046631,42.95146560668945],[-1.828825831413269,41.911441802978516],[-1.848402380943298,43.342071533203125],[-1.853058218955994,43.407203674316406]]],[[[15.6271390914917,38.28691864013672],[14.05618953704834,37.96426773071289],[12.649824142456055,38.09331130981445],[12.490468978881836,37.706241607666016],[15.210210800170898,36.9970588684082],[15.6271390914917,38.28691864013672]]],[[[9.665326118469238,40.29063034057617],[9.024832725524902,41.26253128051758],[8.154606819152832,40.93837356567383],[8.336196899414062,38.997230529785156],[9.592622756958008,39.1264533996582],[9.665326118469238,40.29063034057617]]]]},"properties":{"Name":"(Personal union of Crown of Aragon with Crown of Castile)","FromYear":1497,"ToYear":1501,"Area":568782.5116232502,"Type":"RELATION","Wikipedia":"Catholic Monarchs of Spain","Wikidata":"Q186851","SeshatID":"es_aragon_crown;es_castile_crown","Components":"Crown of Aragon;Crown of Castile","MemberOf":""}},
{"type":"Feature","geometry":{"type":"MultiPolygon","coordinates":[[[[-1.828825831413269,41.911441802978516],[-0.938149929046631,42.95146560668945],[1.485537886619568,42.62621307373047],[1.725796341896057,42.62621307373047],[1.80907130241394,42.56119155883789],[2.749729871749878,43.016544342041016],[2.990521192550659,43.016544342041016],[3.298082113265991,43.342071533203125],[3.850892543792725,43.6026611328125],[5.796233177185059,43.146724700927734],[6.91260290145874,43.53750228881836],[6.895741939544678,44.32010269165039],[6.966631412506104,44.77729415893555],[6.134057521820068,45.56227111816406],[5.070321559906006,45.693260192871094],[4.897816181182861,45.95537567138672],[5.37468433380127,46.348915100097656],[5.818123817443848,47.86185836791992],[5.386211395263672,48.38986587524414],[5.303273677825928,48.38986587524414],[5.2188820736419,48.42947471275199],[5.162502056767151,48.455936431884766],[5.049963233092711,48.508756046150246],[5.021697924941386,48.52202224731445],[4.880861282348633,48.5881233215332],[4.878275871276855,48.654239654541016],[4.940790176391602,49.18375015258789],[4.642117318882938,49.57728180262361],[4.601894857198655,49.71431350708008],[4.582405090332031,49.78071212768555],[4.579616546630859,49.84712600708008],[4.53490746876139,49.91355895996094],[4.490188121795654,49.98000717163086],[4.406350135803223,49.98000717163086],[4.151839256286621,50.04647445678711],[3.729254722595215,50.11296081542969],[1.95488452911377,50.312522888183594],[2.010558843612671,50.77880859375],[1.841925024986267,50.77880859375],[1.75760805606842,50.77880859375],[1.697111228697703,50.84549331665039],[1.666910892090524,50.87878268347631],[1.6365936370134901,50.912200927734375],[1.433403611183167,50.578861236572266],[0.007001183927059,49.38258361816406],[-2.031550645828247,49.78071212768555],[-1.602181315422058,48.654239654541016],[-3.122164011001587,48.91886520385742],[-4.599917888641357,48.72037124633789],[-4.424368858337402,47.79592514038086],[-2.837259292602539,47.598209381103516],[-1.251809358596802,46.283294677734375],[-1.321390628814697,43.86341094970703],[-1.687574744224548,43.342071533203125],[-1.767988562583923,43.342071533203125],[-1.853058218955994,43.407203674316406],[-1.848402380943298,43.342071533203125],[-1.828825831413269,41.911441802978516]]],[[[7.695308685302734,44.842647552490234],[7.768521461918579,44.5159797668457],[7.783157348632812,44.45067596435547],[7.862477749640862,44.54859406563622],[7.888964677746353,44.58129119873047],[7.941880702972412,44.64661407470703],[7.940820693969727,44.71194839477539],[7.899192379176613,44.77729415893555],[7.857559204101562,44.842647552490234],[7.695308685302734,44.842647552490234]]]]},"properties":{"Name":"(Kingdom of France)","FromYear":1497,"ToYear":1501,"Area":467824.94432985055,"Type":"POLITY","Wikipedia":"Kingdom of France","Wikidata":"Q207162","SeshatID":"fr_valois_k_2","Components":"County of Nevers;County of Foix;Kingdom of France;County of Auvergne;House of Bourbon","MemberOf":""}},
{"type":"Feature","geometry":{"type":"MultiPolygon","coordinates":[[[[5.37468433380127,46.348915100097656],[6.506691455841064,46.87434005737305],[6.504899501800537,46.94007873535156],[6.5861889852800894,46.97293773930504],[6.830254077911377,47.07159423828125],[6.826910972595215,47.20316696166992],[6.989914417266846,47.26897048950195],[6.983439445495605,47.53233337402344],[7.06591796875,47.53233337402344],[7.156311661674072,47.514367100254006],[7.39728307723999,47.46647262573242],[7.43708244861018,47.53233337402344],[7.476891040802002,47.598209381103516],[7.559404373168945,47.598209381103516],[7.056310653686523,47.92780685424805],[6.890934467315674,47.92780685424805],[5.818123817443848,47.86185836791992],[5.37468433380127,46.348915100097656]]],[[[7.56217098236084,47.46647262573242],[8.218400955200195,47.664100646972656],[8.210589408874512,48.1257438659668],[7.560789108276367,47.53233337402344],[7.56217098236084,47.46647262573242]]],[[[5.684420585632324,49.38258361816406],[6.01627254486084,49.44889450073242],[5.9349219184374205,49.38258361816406],[5.934895730439874,49.382562271687625],[5.85359001159668,49.316287994384766],[5.857953548431396,49.18375015258789],[6.189843514788912,49.23675441151327],[6.272853374481201,49.2500114440918],[6.356269359588623,49.2500114440918],[6.346458435058594,49.58156967163086],[6.582399845123291,50.11296081542969],[5.058992385864258,50.445655822753906],[5.784458637237549,51.37968063354492],[5.056382656097412,52.653533935546875],[4.862768650054932,53.192195892333984],[3.738690614700317,51.64724349975586],[2.074539184570312,51.112430572509766],[2.090827465057373,50.84549331665039],[2.007492200242073,50.82881604968416],[2.010558843612671,50.77880859375],[1.95488452911377,50.312522888183594],[3.729254722595215,50.11296081542969],[4.151839256286621,50.04647445678711],[4.406350135803223,49.98000717163086],[4.47592830657959,50.312522888183594],[5.175980091094971,49.58156967163086],[5.259585380554199,49.58156967163086],[5.35286808013916,49.316287994384766],[5.685174851001257,49.36047842786613],[5.684420585632324,49.38258361816406]]],[[[14.277569770812988,45.36587905883789],[16.01764488220215,46.348915100097656],[16.84486961364746,48.72037124633789],[14.940543174743652,48.98506164550781],[14.100465774536133,48.654239654541016],[13.847192764282227,48.455936431884766],[13.177251815795898,48.059749603271484],[13.738253593444824,47.07159423828125],[12.342669486999512,47.33478927612305],[11.272144317626953,47.46647262573242],[10.94240665435791,47.53233337402344],[10.694906234741211,47.598209381103516],[10.61239242553711,47.598209381103516],[10.367905616760254,46.61152267456055],[10.5320405960083,46.54585266113281],[12.09045124053955,46.677207946777344],[13.563776969909668,46.480194091796875],[13.633292198181152,45.75876998901367],[13.710229873657227,45.496795654296875],[14.026969909667969,45.03877639770508],[14.277569770812988,45.36587905883789]]]]},"properties":{"Name":"(Habsburg Monarchy)","FromYear":1497,"ToYear":1501,"Area":171362.55556660704,"Type":"POLITY","Wikipedia":"Habsburg Austria","Wikidata":"Q66504140","SeshatID":"at_habsburg_1","Components":"House of Habsburg;Habsburg Monarchy","MemberOf":""}},
{"type":"Feature","geometry":{"type":"MultiPolygon","coordinates":[[[[8.429792404174805,44.5159797668457],[7.941880702972412,44.64661407470703],[7.888964677746353,44.58129119873047],[7.862477749640862,44.54859406563622],[7.783157348632812,44.45067596435547],[7.768521461918579,44.5159797668457],[7.701082229614258,44.5159797668457],[7.62705659866333,44.12431716918945],[8.030961036682129,44.12431716918945],[8.152163205391814,44.12431716918945],[8.192523002624512,44.12431716918945],[8.191595077514648,44.18956756591797],[8.271687035285549,44.241728319532974],[8.291803533811333,44.25482940673828],[8.3518255608292,44.29391940091357],[8.35147476196289,44.32010269165039],[8.429792404174805,44.5159797668457]]],[[[8.338723182678223,45.23500442504883],[7.695308685302734,44.842647552490234],[7.857559204101562,44.842647552490234],[7.899192379176613,44.77729415893555],[7.939755439758301,44.77729415893555],[8.338723182678223,45.23500442504883]]],[[[8.40185260772705,46.480194091796875],[7.591682910919189,46.02093505859375],[7.919662952423096,45.95537567138672],[8.40185260772705,46.480194091796875]]],[[[6.830254077911377,47.07159423828125],[6.5861889852800894,46.97293773930504],[6.504899501800537,46.94007873535156],[6.506691455841064,46.87434005737305],[6.670964241027832,46.87434005737305],[6.754786491394043,46.808616638183594],[7.080090999603271,46.94007873535156],[6.828584671020508,47.13737487792969],[6.830254077911377,47.07159423828125]]],[[[6.983439445495605,47.53233337402344],[6.989914417266846,47.26897048950195],[7.174039960261556,47.318332406376236],[7.206440033012043,47.40058305257605],[7.156311661674072,47.514367100254006],[7.06591796875,47.53233337402344],[6.983439445495605,47.53233337402344]]],[[[7.39728307723999,47.46647262573242],[7.398007307355303,47.43354102151636],[7.563549518585205,47.4006233215332],[7.56217098236084,47.46647262573242],[7.39728307723999,47.46647262573242]]],[[[5.868803024291992,48.852684020996094],[4.878275871276855,48.654239654541016],[4.880861282348633,48.5881233215332],[5.021697924941386,48.52202224731445],[5.049963233092711,48.508756046150246],[5.162502056767151,48.455936431884766],[5.2188820736419,48.42947471275199],[5.303273677825928,48.38986587524414],[5.386211395263672,48.38986587524414],[5.868803024291992,48.852684020996094]]],[[[6.03309965133667,48.91886520385742],[5.949869632720947,48.91886520385742],[5.868803024291992,48.852684020996094],[5.95305728493278,48.81959566467323],[6.037274360656738,48.786521911621094],[6.03309965133667,48.91886520385742]]],[[[5.36487340927124,48.98506164550781],[5.85359001159668,49.316287994384766],[5.85140323638916,49.38258361816406],[5.685174851001257,49.36047842786613],[5.35286808013916,49.316287994384766],[5.36487340927124,48.98506164550781]]],[[[5.175980091094971,49.58156967163086],[4.47592830657959,50.312522888183594],[4.406350135803223,49.98000717163086],[4.490188121795654,49.98000717163086],[4.493024826049805,49.91355895996094],[4.53490746876139,49.91355895996094],[4.579616546630859,49.84712600708008],[4.582405090332031,49.78071212768555],[4.601894857198655,49.71431350708008],[4.642117318882938,49.57728180262361],[4.940790176391602,49.18375015258789],[5.175980091094971,49.58156967163086]]],[[[10.776015281677246,42.95146560668945],[11.494861602783203,42.36617660522461],[11.574831008911133,42.36617660522461],[11.900826454162598,43.146724700927734],[10.776015281677246,42.95146560668945]]],[[[9.970182418823242,43.99384307861328],[10.212483406066895,43.92862319946289],[11.182066917419434,44.32010269165039],[11.589669227600098,44.908016204833984],[10.453055381774902,45.169586181640625],[9.969700813293457,44.12431716918945],[9.969943046569824,44.05907440185547],[9.970182418823242,43.99384307861328]]],[[[12.238323211669922,44.842647552490234],[11.751571655273438,44.842647552490234],[12.156049728393555,44.71194839477539],[12.238323211669922,44.842647552490234]]],[[[12.09045124053955,46.677207946777344],[10.5320405960083,46.54585266113281],[10.532170295715332,46.480194091796875],[10.503675436234,46.29485845243355],[10.471641786297182,46.08650588989258],[10.451480865478516,45.95537567138672],[11.677236557006836,46.08650588989258],[12.09045124053955,46.677207946777344]]],[[[11.272320747375488,47.53233337402344],[11.024916641328776,47.56055918803566],[10.94240665435791,47.53233337402344],[11.272144317626953,47.46647262573242],[11.272320747375488,47.53233337402344]]],[[[13.177251815795898,48.059749603271484],[12.342669486999512,47.33478927612305],[13.738253593444824,47.07159423828125],[13.177251815795898,48.059749603271484]]],[[[13.847192764282227,48.455936431884766],[14.100465774536133,48.654239654541016],[13.358475685119629,48.98506164550781],[13.847192764282227,48.455936431884766]]],[[[7.560789108276367,47.53233337402344],[8.210589408874512,48.1257438659668],[8.218400955200195,47.664100646972656],[8.87795352935791,47.730003356933594],[9.043119430541992,47.730003356933594],[9.623783111572266,47.4006233215332],[9.542471885681152,47.26897048950195],[8.643148422241211,46.808616638183594],[9.141342163085938,46.283294677734375],[10.367905616760254,46.61152267456055],[10.61239242553711,47.598209381103516],[10.52871322631836,48.191749572753906],[10.528592109680176,48.257774353027344],[10.027185440063477,49.11750411987305],[11.277556419372559,49.18375015258789],[12.12159538269043,50.17946243286133],[12.12234115600586,50.2459831237793],[11.119558334350586,51.31283950805664],[11.119930267333984,51.37968063354492],[11.205038704846285,51.44648980751097],[11.205464363098145,51.51342010498047],[12.051520347595215,51.37968063354492],[12.402885437011719,52.18334197998047],[12.32740306854248,52.78806686401367],[11.127049446105957,52.51908493041992],[11.738075256347656,53.597137451171875],[13.196187019348145,53.32708740234375],[13.89604663848877,53.732303619384766],[14.476561546325684,53.057395935058594],[16.400707244873047,53.799922943115234],[17.079761505126953,53.597137451171875],[18.024137496948242,54.88506317138672],[15.036103248596191,54.20612335205078],[14.499796867370605,53.732303619384766],[13.405717849731445,54.74907684326172],[10.792462348937988,54.00291442871094],[8.892172813415527,53.86756134033203],[5.542333602905273,53.39456558227539],[5.056382656097412,52.653533935546875],[5.784458637237549,51.37968063354492],[5.058992385864258,50.445655822753906],[6.582399845123291,50.11296081542969],[6.346458435058594,49.58156967163086],[7.015303134918213,49.58156967163086],[8.267212867736816,49.71431350708008],[8.112674713134766,48.98506164550781],[8.029407501220703,48.98506164550781],[7.10215425491333,49.44889450073242],[6.356269359588623,49.2500114440918],[6.272853374481201,49.2500114440918],[6.189843514788912,49.23675441151327],[5.94133186340332,49.18375015258789],[6.03309965133667,48.91886520385742],[7.056310653686523,47.92780685424805],[7.559404373168945,47.598209381103516],[7.560789108276367,47.53233337402344]],[[12.806585311889648,50.97892379760742],[12.773716693084129,50.701026902979905],[12.717718124389648,50.71213912963867],[12.739926026413464,50.77880859375],[12.806585311889648,50.97892379760742]]],[[[12.899682998657227,51.44654083251953],[12.730218887329102,51.44654083251953],[12.644350051879883,51.37968063354492],[12.728649964195576,51.35739289639821],[12.89716625213623,51.31283950805664],[12.899682998657227,51.44654083251953]]]]},"properties":{"Name":"(Holy Roman Empire)","FromYear":1497,"ToYear":1501,"Area":344262.80320255447,"Type":"POLITY","Wikipedia":"Holy Roman Empire","Wikidata":"Q12548","SeshatID":"de_empire_minor_1","Components":"Holy Roman Empire Minor States","MemberOf":""}},
{"type":"Feature","geometry":{"type":"Polygon","coordinates":[[[13.633292198181152,45.75876998901367],[13.563776969909668,46.480194091796875],[13.307992935180664,45.82429504394531],[13.633292198181152,45.75876998901367]]]},"properties":{"Name":"Duchy of Styria","FromYear":1497,"ToYear":1501,"Area":2003.6618093864524,"Type":"POLITY","Wikipedia":"Duchy of Styria","Wikidata":"Q580447","SeshatID":"","Components":"","MemberOf":""}},
{"type":"Feature","geometry":{"type":"MultiPolygon","coordinates":[[[[-1.828825831413269,41.911441802978516],[-0.938149929046631,42.95146560668945],[1.485537886619568,42.62621307373047],[1.725796341896057,42.62621307373047],[1.277275562286377,43.53750228881836],[-0.071348160505295,43.211830139160156],[-1.687574744224548,43.342071533203125],[-1.767988562583923,43.342071533203125],[-1.848402380943298,43.342071533203125],[-1.828825831413269,41.911441802978516]]],[[[2.990521192550659,43.016544342041016],[3.298082113265991,43.342071533203125],[2.749729871749878,43.016544342041016],[2.990521192550659,43.016544342041016]]],[[[0.903831779956818,45.82429504394531],[-0.071827687323093,44.5159797668457],[2.101012229919434,44.77729415893555],[2.056761503219604,45.62776184082031],[0.903831779956818,45.82429504394531]]]]},"properties":{"Name":"County of Foix","FromYear":1497,"ToYear":1501,"Area":45120.676729801846,"Type":"POLITY","Wikipedia":"County of Foix","Wikidata":"Q1481436","SeshatID":"fr_valois_k_2","Components":"","MemberOf":"(Kingdom of France)"}},
{"type":"Feature","geometry":{"type":"Polygon","coordinates":[[[29.221864700317383,47.26897048950195],[29.53160858154297,47.79592514038086],[31.56758689880371,48.191749572753906],[34.39474868774414,49.316287994384766],[35.496402740478516,48.91886520385742],[36.85371017456055,48.5881233215332],[37.83888244628906,48.98506164550781],[37.543670654296875,49.64793395996094],[37.964942932128906,51.78114318847656],[35.765281677246094,53.124786376953125],[35.931175231933594,54.341712951660156],[35.00547409057617,54.47740173339844],[34.42354965209961,53.732303619384766],[32.7388801574707,54.88506317138672],[34.99947738647461,56.11355972290039],[34.95655059814453,56.731075286865234],[32.864906311035156,57.7653923034668],[30.108091354370117,56.319149017333984],[29.58440589904785,56.86860656738281],[27.901763916015625,56.86860656738281],[27.470035552978516,55.77145767211914],[26.495513916015625,55.70311737060547],[24.82863998413086,56.387733459472656],[21.74201202392578,56.387733459472656],[20.916179656982422,56.04508590698242],[20.991283416748047,55.90821838378906],[22.812959671020508,54.88506317138672],[22.42144775390625,53.597137451171875],[20.395845413208008,53.057395935058594],[18.7028751373291,53.39456558227539],[19.819725036621094,54.47740173339844],[18.024137496948242,54.88506317138672],[17.079761505126953,53.597137451171875],[16.400707244873047,53.799922943115234],[15.646231651306152,52.31757736206055],[16.131103515625,51.71418380737305],[19.18613052368164,50.37908172607422],[18.88353729248047,49.51522445678711],[20.453577041625977,49.2500114440918],[21.79827117919922,49.38258361816406],[23.666343688964844,48.786521911621094],[24.90500259399414,47.79592514038086],[25.246307373046875,48.786521911621094],[27.39371109008789,48.654239654541016],[29.221864700317383,47.26897048950195]]]},"properties":{"Name":"House of Jagiellon","FromYear":1497,"ToYear":1501,"Area":1021300.6906951936,"Type":"POLITY","Wikipedia":"Jagiellonian dynasty","Wikidata":"Q194355","SeshatID":"pl_jagiellonian_dyn","Components":"","MemberOf":""}},
{"type":"Feature","geometry":{"type":"MultiPolygon","coordinates":[[[[15.6271390914917,38.28691864013672],[14.05618953704834,37.96426773071289],[12.649824142456055,38.09331130981445],[12.490468978881836,37.706241607666016],[15.210210800170898,36.9970588684082],[15.6271390914917,38.28691864013672]]],[[[9.665326118469238,40.29063034057617],[9.024832725524902,41.26253128051758],[8.154606819152832,40.93837356567383],[8.336196899414062,38.997230529785156],[9.592622756958008,39.1264533996582],[9.665326118469238,40.29063034057617]]],[[[-1.828825831413269,41.911441802978516],[-2.098877191543579,41.19768524169922],[-1.15704333782196,40.0964469909668],[-1.354927182197571,39.449623107910156],[-0.436175793409348,38.48057174682617],[0.099359586834908,38.738853454589844],[-0.345421016216278,39.70827102661133],[1.238392949104309,41.19768524169922],[3.116764783859253,41.911441802978516],[2.990521192550659,43.016544342041016],[2.749729871749878,43.016544342041016],[1.80907130241394,42.56119155883789],[1.485537886619568,42.62621307373047],[-0.938149929046631,42.95146560668945],[-1.828825831413269,41.911441802978516]]]]},"properties":{"Name":"Crown of Aragon","FromYear":1497,"ToYear":1501,"Area":156544.94502301922,"Type":"POLITY","Wikipedia":"Crown of Aragon","Wikidata":"Q204920","SeshatID":"es_aragon_crown","Components":"","MemberOf":""}},
{"type":"Feature","geometry":{"type":"Polygon","coordinates":[[[19.819725036621094,54.47740173339844],[18.7028751373291,53.39456558227539],[20.395845413208008,53.057395935058594],[22.42144775390625,53.597137451171875],[22.812959671020508,54.88506317138672],[20.991283416748047,55.90821838378906],[20.990678787231445,54.95309066772461],[19.819725036621094,54.47740173339844]]]},"properties":{"Name":"Teutonic Order","FromYear":1497,"ToYear":1520,"Area":38518.13257865235,"Type":"POLITY","Wikipedia":"Teutonic Order","Wikidata":"Q48189","SeshatID":"","Components":"","MemberOf":""}},
{"type":"Feature","geometry":{"type":"MultiPolygon","coordinates":[[[[8.429792404174805,44.5159797668457],[7.941880702972412,44.64661407470703],[7.888964677746353,44.58129119873047],[7.862477749640862,44.54859406563622],[7.783157348632812,44.45067596435547],[7.768521461918579,44.5159797668457],[7.701082229614258,44.5159797668457],[7.62705659866333,44.12431716918945],[8.030961036682129,44.12431716918945],[8.152163205391814,44.12431716918945],[8.192523002624512,44.12431716918945],[8.191595077514648,44.18956756591797],[8.271687035285549,44.241728319532974],[8.291803533811333,44.25482940673828],[8.3518255608292,44.29391940091357],[8.35147476196289,44.32010269165039],[8.429792404174805,44.5159797668457]]],[[[8.338723182678223,45.23500442504883],[7.695308685302734,44.842647552490234],[7.857559204101562,44.842647552490234],[7.899192379176613,44.77729415893555],[7.939755439758301,44.77729415893555],[8.338723182678223,45.23500442504883]]],[[[8.40185260772705,46.480194091796875],[7.591682910919189,46.02093505859375],[7.919662952423096,45.95537567138672],[8.40185260772705,46.480194091796875]]],[[[6.830254077911377,47.07159423828125],[6.5861889852800894,46.97293773930504],[6.504899501800537,46.94007873535156],[6.506691455841064,46.87434005737305],[6.670964241027832,46.87434005737305],[6.754786491394043,46.808616638183594],[7.080090999603271,46.94007873535156],[6.828584671020508,47.13737487792969],[6.830254077911377,47.07159423828125]]],[[[6.983439445495605,47.53233337402344],[6.989914417266846,47.26897048950195],[7.174039960261556,47.318332406376236],[7.206440033012043,47.40058305257605],[7.156311661674072,47.514367100254006],[7.06591796875,47.53233337402344],[6.983439445495605,47.53233337402344]]],[[[7.39728307723999,47.46647262573242],[7.398007307355303,47.43354102151636],[7.563549518585205,47.4006233215332],[7.56217098236084,47.46647262573242],[7.39728307723999,47.46647262573242]]],[[[5.868803024291992,48.852684020996094],[4.878275871276855,48.654239654541016],[4.880861282348633,48.5881233215332],[5.021697924941386,48.52202224731445],[5.049963233092711,48.508756046150246],[5.162502056767151,48.455936431884766],[5.2188820736419,48.42947471275199],[5.303273677825928,48.38986587524414],[5.386211395263672,48.38986587524414],[5.868803024291992,48.852684020996094]]],[[[6.03309965133667,48.91886520385742],[5.949869632720947,48.91886520385742],[5.868803024291992,48.852684020996094],[5.95305728493278,48.81959566467323],[6.037274360656738,48.786521911621094],[6.03309965133667,48.91886520385742]]],[[[5.36487340927124,48.98506164550781],[5.85359001159668,49.316287994384766],[5.85140323638916,49.38258361816406],[5.685174851001257,49.36047842786613],[5.35286808013916,49.316287994384766],[5.36487340927124,48.98506164550781]]],[[[5.175980091094971,49.58156967163086],[4.47592830657959,50.312522888183594],[4.406350135803223,49.98000717163086],[4.490188121795654,49.98000717163086],[4.493024826049805,49.91355895996094],[4.53490746876139,49.91355895996094],[4.579616546630859,49.84712600708008],[4.582405090332031,49.78071212768555],[4.601894857198655,49.71431350708008],[4.642117318882938,49.57728180262361],[4.940790176391602,49.18375015258789],[5.175980091094971,49.58156967163086]]],[[[10.776015281677246,42.95146560668945],[11.494861602783203,42.36617660522461],[11.574831008911133,42.36617660522461],[11.900826454162598,43.146724700927734],[10.776015281677246,42.95146560668945]]],[[[9.970182418823242,43.99384307861328],[10.212483406066895,43.92862319946289],[11.182066917419434,44.32010269165039],[11.589669227600098,44.908016204833984],[10.453055381774902,45.169586181640625],[9.969700813293457,44.12431716918945],[9.969943046569824,44.05907440185547],[9.970182418823242,43.99384307861328]]],[[[12.238323211669922,44.842647552490234],[11.751571655273438,44.842647552490234],[12.156049728393555,44.71194839477539],[12.238323211669922,44.842647552490234]]],[[[12.09045124053955,46.677207946777344],[10.5320405960083,46.54585266113281],[10.532170295715332,46.480194091796875],[10.503675436234,46.29485845243355],[10.471641786297182,46.08650588989258],[10.451480865478516,45.95537567138672],[11.677236557006836,46.08650588989258],[12.09045124053955,46.677207946777344]]],[[[11.272320747375488,47.53233337402344],[11.024916641328776,47.56055918803566],[10.94240665435791,47.53233337402344],[11.272144317626953,47.46647262573242],[11.272320747375488,47.53233337402344]]],[[[13.177251815795898,48.059749603271484],[12.342669486999512,47.33478927612305],[13.738253593444824,47.07159423828125],[13.177251815795898,48.059749603271484]]],[[[13.847192764282227,48.455936431884766],[14.100465774536133,48.654239654541016],[13.358475685119629,48.98506164550781],[13.847192764282227,48.455936431884766]]],[[[7.560789108276367,47.53233337402344],[8.210589408874512,48.1257438659668],[8.218400955200195,47.664100646972656],[8.87795352935791,47.730003356933594],[9.043119430541992,47.730003356933594],[9.623783111572266,47.4006233215332],[9.542471885681152,47.26897048950195],[8.643148422241211,46.808616638183594],[9.141342163085938,46.283294677734375],[10.367905616760254,46.61152267456055],[10.61239242553711,47.598209381103516],[10.52871322631836,48.191749572753906],[10.528592109680176,48.257774353027344],[10.027185440063477,49.11750411987305],[11.277556419372559,49.18375015258789],[12.12159538269043,50.17946243286133],[12.12234115600586,50.2459831237793],[11.119558334350586,51.31283950805664],[11.119930267333984,51.37968063354492],[11.205038704846285,51.44648980751097],[11.205464363098145,51.51342010498047],[12.051520347595215,51.37968063354492],[12.402885437011719,52.18334197998047],[12.32740306854248,52.78806686401367],[11.127049446105957,52.51908493041992],[11.738075256347656,53.597137451171875],[13.196187019348145,53.32708740234375],[13.89604663848877,53.732303619384766],[14.476561546325684,53.057395935058594],[16.400707244873047,53.799922943115234],[17.079761505126953,53.597137451171875],[18.024137496948242,54.88506317138672],[15.036103248596191,54.20612335205078],[14.499796867370605,53.732303619384766],[13.405717849731445,54.74907684326172],[10.792462348937988,54.00291442871094],[8.892172813415527,53.86756134033203],[5.542333602905273,53.39456558227539],[5.056382656097412,52.653533935546875],[5.784458637237549,51.37968063354492],[5.058992385864258,50.445655822753906],[6.582399845123291,50.11296081542969],[6.346458435058594,49.58156967163086],[7.015303134918213,49.58156967163086],[8.267212867736816,49.71431350708008],[8.112674713134766,48.98506164550781],[8.029407501220703,48.98506164550781],[7.10215425491333,49.44889450073242],[6.356269359588623,49.2500114440918],[6.272853374481201,49.2500114440918],[6.189843514788912,49.23675441151327],[5.94133186340332,49.18375015258789],[6.03309965133667,48.91886520385742],[7.056310653686523,47.92780685424805],[7.559404373168945,47.598209381103516],[7.560789108276367,47.53233337402344]],[[12.806585311889648,50.97892379760742],[12.773716693084129,50.701026902979905],[12.717718124389648,50.71213912963867],[12.739926026413464,50.77880859375],[12.806585311889648,50.97892379760742]]],[[[12.899682998657227,51.44654083251953],[12.730218887329102,51.44654083251953],[12.644350051879883,51.37968063354492],[12.728649964195576,51.35739289639821],[12.89716625213623,51.31283950805664],[12.899682998657227,51.44654083251953]]]]},"properties":{"Name":"Holy Roman Empire Minor States","FromYear":1497,"ToYear":1501,"Area":344262.80320255447,"Type":"POLITY","Wikipedia":"Holy Roman Empire","Wikidata":"Q12548","SeshatID":"de_empire_minor_1","Components":"","MemberOf":"(Holy Roman Empire)"}},
{"type":"Feature","geometry":{"type":"Polygon","coordinates":[[[15.6271390914917,38.28691864013672],[15.932764053344727,37.96426773071289],[17.138301849365234,39.06184005737305],[16.44725799560547,39.64360046386719],[17.02848243713379,40.54964065551758],[18.43811798095703,40.16116714477539],[17.20269203186035,41.00318908691406],[15.943941116333008,41.39224624633789],[16.11888313293457,41.911441802978516],[14.370945930480957,42.236209869384766],[13.90514087677002,42.95146560668945],[12.856051445007324,42.496177673339844],[13.804443359375,41.84651184082031],[13.792884826660156,41.19768524169922],[15.898874282836914,39.77294921875],[16.265209197998047,38.738853454589844],[15.6271390914917,38.28691864013672]]]},"properties":{"Name":"Kingdom of Naples","FromYear":1497,"ToYear":1501,"Area":68688.52360996425,"Type":"POLITY","Wikipedia":"Kingdom of Naples","Wikidata":"Q173065","SeshatID":"","Components":"","MemberOf":""}},
{"type":"Feature","geometry":{"type":"MultiPolygon","coordinates":[[[[5.818123817443848,47.86185836791992],[6.890934467315674,47.92780685424805],[7.056310653686523,47.92780685424805],[6.03309965133667,48.91886520385742],[6.037274360656738,48.786521911621094],[5.95305728493278,48.81959566467323],[5.868803024291992,48.852684020996094],[5.386211395263672,48.38986587524414],[5.818123817443848,47.86185836791992]]],[[[5.175980091094971,49.58156967163086],[4.940790176391602,49.18375015258789],[4.878275871276855,48.654239654541016],[5.868803024291992,48.852684020996094],[5.949869632720947,48.91886520385742],[6.03309965133667,48.91886520385742],[5.94133186340332,49.18375015258789],[5.857953548431396,49.18375015258789],[5.85359001159668,49.316287994384766],[5.36487340927124,48.98506164550781],[5.259585380554199,49.58156967163086],[5.175980091094971,49.58156967163086]]],[[[6.356269359588623,49.2500114440918],[7.10215425491333,49.44889450073242],[7.015303134918213,49.58156967163086],[6.346458435058594,49.58156967163086],[6.356269359588623,49.2500114440918]]],[[[5.85359001159668,49.316287994384766],[5.934895730439874,49.382562271687625],[5.9349219184374205,49.38258361816406],[6.01627254486084,49.44889450073242],[5.684420585632324,49.38258361816406],[5.85140323638916,49.38258361816406],[5.85359001159668,49.316287994384766]]]]},"properties":{"Name":"Duchy of Lorraine","FromYear":1497,"ToYear":1501,"Area":17186.359382150273,"Type":"POLITY","Wikipedia":"Duchy of Lorraine","Wikidata":"Q155019","SeshatID":"","Components":"","MemberOf":""}},
{"type":"Feature","geometry":{"type":"Polygon","coordinates":[[[4.402639865875244,46.08650588989258],[3.985684394836426,46.283294677734375],[3.728644609451294,46.54585266113281],[2.895960330963135,46.808616638183594],[2.345533847808838,46.348915100097656],[0.941711187362671,46.54585266113281],[0.903831779956818,45.82429504394531],[2.056761503219604,45.62776184082031],[2.101012229919434,44.77729415893555],[2.917982816696167,44.64661407470703],[4.846760749816895,45.10417556762695],[5.070321559906006,45.693260192871094],[4.897816181182861,45.95537567138672],[4.402639865875244,46.08650588989258]]]},"properties":{"Name":"House of Bourbon","FromYear":1497,"ToYear":1518,"Area":43425.58552003659,"Type":"POLITY","Wikipedia":"House of Bourbon","Wikidata":"Q58389","SeshatID":"fr_valois_k_2","Components":"","MemberOf":"(Kingdom of France)"}},
{"type":"Feature","geometry":{"type":"MultiPolygon","coordinates":[[[[-1.767988562583923,43.342071533203125],[-1.853058218955994,43.407203674316406],[-1.848402380943298,43.342071533203125],[-1.767988562583923,43.342071533203125]]],[[[7.783157348632812,44.45067596435547],[7.862477749640862,44.54859406563622],[7.888964677746353,44.58129119873047],[7.941880702972412,44.64661407470703],[7.940820693969727,44.71194839477539],[7.899192379176613,44.77729415893555],[7.857559204101562,44.842647552490234],[7.695308685302734,44.842647552490234],[7.768521461918579,44.5159797668457],[7.783157348632812,44.45067596435547]]],[[[4.490188121795654,49.98000717163086],[4.406350135803223,49.98000717163086],[4.151839256286621,50.04647445678711],[3.729254722595215,50.11296081542969],[1.95488452911377,50.312522888183594],[2.010558843612671,50.77880859375],[1.841925024986267,50.77880859375],[1.433403611183167,50.578861236572266],[0.007001183927059,49.38258361816406],[-2.031550645828247,49.78071212768555],[-1.602181315422058,48.654239654541016],[-3.122164011001587,48.91886520385742],[-4.599917888641357,48.72037124633789],[-4.424368858337402,47.79592514038086],[-2.837259292602539,47.598209381103516],[-1.251809358596802,46.283294677734375],[-1.321390628814697,43.86341094970703],[-1.687574744224548,43.342071533203125],[-0.071348160505295,43.211830139160156],[1.277275562286377,43.53750228881836],[1.725796341896057,42.62621307373047],[1.80907130241394,42.56119155883789],[2.749729871749878,43.016544342041016],[3.298082113265991,43.342071533203125],[3.850892543792725,43.6026611328125],[5.796233177185059,43.146724700927734],[6.91260290145874,43.53750228881836],[6.895741939544678,44.32010269165039],[6.966631412506104,44.77729415893555],[6.134057521820068,45.56227111816406],[5.070321559906006,45.693260192871094],[4.846760749816895,45.10417556762695],[2.917982816696167,44.64661407470703],[2.101012229919434,44.77729415893555],[-0.071827687323093,44.5159797668457],[0.903831779956818,45.82429504394531],[0.941711187362671,46.54585266113281],[2.345533847808838,46.348915100097656],[2.895960330963135,46.808616638183594],[2.429348230361938,47.86185836791992],[3.583402872085571,47.92780685424805],[3.728644609451294,46.54585266113281],[3.985684394836426,46.283294677734375],[4.402639865875244,46.08650588989258],[4.897816181182861,45.95537567138672],[5.37468433380127,46.348915100097656],[5.818123817443848,47.86185836791992],[5.386211395263672,48.38986587524414],[5.303273677825928,48.38986587524414],[5.2188820736419,48.42947471275199],[5.162502056767151,48.455936431884766],[5.049963233092711,48.508756046150246],[5.021697924941386,48.52202224731445],[4.880861282348633,48.5881233215332],[4.878275871276855,48.654239654541016],[4.940790176391602,49.18375015258789],[4.642117318882938,49.57728180262361],[4.601894857198655,49.71431350708008],[4.582405090332031,49.78071212768555],[4.579616546630859,49.84712600708008],[4.53490746876139,49.91355895996094],[4.490188121795654,49.98000717163086]]]]},"properties":{"Name":"Kingdom of France","FromYear":1497,"ToYear":1501,"Area":366013.8851546166,"Type":"POLITY","Wikipedia":"Kingdom of France","Wikidata":"Q207162","SeshatID":"fr_valois_k_2","Components":"","MemberOf":"(Kingdom of France)"}},
{"type":"Feature","geometry":{"type":"MultiPolygon","coordinates":[[[[44.83738327026367,42.75628662109375],[44.82474899291992,42.691246032714844],[44.90486526489258,42.691246032714844],[44.83738327026367,42.75628662109375]]],[[[44.83738327026367,42.75628662109375],[44.85004806518555,42.82133865356445],[44.75723648071289,42.75628662109375],[44.83738327026367,42.75628662109375]]]]},"properties":{"Name":"Timurid Empire","FromYear":1497,"ToYear":1501,"Area":1946403.408010894,"Type":"POLITY","Wikipedia":"Timurid Empire","Wikidata":"Q484195","SeshatID":"uz_timurid_emp","Components":"","MemberOf":""}},
{"type":"Feature","geometry":{"type":"Polygon","coordinates":[[[-1.853058218955994,43.407203674316406],[-4.990375518798828,43.407203674316406],[-8.243616104125977,43.73301696777344],[-9.30460262298584,43.146724700927734],[-8.928141593933105,41.911441802978516],[-6.700808048248291,41.97637939453125],[-6.254164218902588,41.45711898803711],[-6.927728176116943,41.00318908691406],[-6.985427379608154,38.997230529785156],[-7.387404441833496,37.254878997802734],[-6.432291984558105,36.9970588684082],[-5.584750652313232,36.03080368041992],[-4.468626022338867,36.73930740356445],[-2.061630010604858,36.80373764038086],[-1.708719491958618,37.44829177856445],[-0.704753637313843,37.641746520996094],[-0.436175793409348,38.48057174682617],[-1.354927182197571,39.449623107910156],[-1.15704333782196,40.0964469909668],[-2.098877191543579,41.19768524169922],[-1.828825831413269,41.911441802978516],[-1.848402380943298,43.342071533203125],[-1.853058218955994,43.407203674316406]]]},"properties":{"Name":"Crown of Castile","FromYear":1497,"ToYear":1501,"Area":412237.5666002308,"Type":"POLITY","Wikipedia":"Crown of Castile","Wikidata":"Q217196","SeshatID":"es_castile_crown","Components":"","MemberOf":""}},
{"type":"Feature","geometry":{"type":"Polygon","coordinates":[[[42.22627258300781,55.83982467651367],[43.685791015625,56.937416076660156],[45,57.08582134040473],[45,60],[30.15093149984802,60],[27.88040542602539,59.504478454589844],[28.038253784179688,59.36461639404297],[28.03827770943572,59.36459514969338],[28.780460357666016,58.94581604003906],[29.58440589904785,56.86860656738281],[30.108091354370117,56.319149017333984],[32.864906311035156,57.7653923034668],[34.95655059814453,56.731075286865234],[34.99947738647461,56.11355972290039],[32.7388801574707,54.88506317138672],[34.42354965209961,53.732303619384766],[35.00547409057617,54.47740173339844],[35.931175231933594,54.341712951660156],[38.540340423583984,54.74907684326172],[40.43535232543945,55.70311737060547],[41.805965423583984,55.90821838378906],[42.22627258300781,55.83982467651367]]]},"properties":{"Name":"Grand Principality of Moscow","FromYear":1497,"ToYear":1501,"Area":2139299.565078137,"Type":"POLITY","Wikipedia":"Principality of Moscow","Wikidata":"Q170770","SeshatID":"ru_moskva_rurik_dyn","Components":"","MemberOf":""}},
{"type":"Feature","geometry":{"type":"Polygon","coordinates":[[[1.75760805606842,50.77880859375],[1.697111228697703,50.84549331665039],[1.666910892090524,50.87878268347631],[1.6365936370134901,50.912200927734375],[1.433403611183167,50.578861236572266],[1.841925024986267,50.77880859375],[1.75760805606842,50.77880859375]]]},"properties":{"Name":"County of Auvergne","FromYear":1497,"ToYear":1501,"Area":706.2260148644731,"Type":"POLITY","Wikipedia":"Auvergne","Wikidata":"Q1152","SeshatID":"fr_valois_k_2","Components":"","MemberOf":"(Kingdom of France)"}}
]}